School ID,Name of School,"Elementary, Middle, or High School",Street Address,Phone Number,Average Student Attendance,Rate of Misconducts (per 100 students) ,College Eligibility %,Graduation Rate %,College Enrollment Rate %,College Enrollment (number of students) ,Freshman on Track Rate %,RCDTS Code,X_COORDINATE,Y_COORDINATE,Latitude,Longitude,Community Area Number,Community Area Name,Ward,Police District,Location
609966,Charles G Hammond Elementary School,ES,2819 W 21st Pl ,(773) 535-4580,95.3,8.5,NULL,NULL,NULL,446,NULL,1.50E+14,1157809.015,1889554.623,41.85269133,-87.69627777,30,SOUTH LAWNDALE,12,10,"(41.85269133, -87.69627777)"
610539,Marvin Camras Elementary School,ES,3000 N Mango Ave ,(773) 534-2960,95.1,4.3,NULL,NULL,NULL,826,NULL,1.50E+14,1137482.296,1919394.9,41.93496641,-87.77016525,19,BELMONT CRAGIN,30,25,"(41.93496641, -87.77016525)"
609852,Eliza Chappell Elementary School,ES,2135 W Foster Ave ,(773) 534-2390,95.1,2.9,NULL,NULL,NULL,451,NULL,1.50E+14,1161016.902,1934466.545,41.975867,-87.68325438,4,LINCOLN SQUARE,47,20,"(41.975867, -87.68325438)"
609835,Daniel R Cameron Elementary School,ES,1234 N Monticello Ave ,(773) 534-4290,92.6,153.9,NULL,NULL,NULL,828,NULL,1.50E+14,1151767.546,1908130.068,41.90378521,-87.71796315,23,HUMBOLDT PARK,26,25,"(41.90378521, -87.71796315)"
610521,Sir Miles Davis Magnet Elementary Academy,ES,6730 S Paulina St ,(773) 535-9120,93,57.8,NULL,NULL,NULL,354,NULL,1.50E+14,1166133.893,1859929.018,41.77122181,-87.66656657,67,WEST ENGLEWOOD,15,7,"(41.77122181, -87.66656657)"
609818,Luther Burbank Elementary School,ES,2035 N Mobile Ave ,(773) 534-3000,95.2,9.8,NULL,NULL,NULL,1139,NULL,1.50E+14,1134122.521,1913042.046,41.91759334,-87.78266267,19,BELMONT CRAGIN,29,25,"(41.91759334, -87.78266267)"
610298,Lenart Elementary Regional Gifted Center,ES,8101 S LaSalle St ,(773) 535-0040,97.4,0.3,NULL,NULL,NULL,328,NULL,1.50E+14,1176725.617,1851241.455,41.74715024,-87.62800231,44,CHATHAM,21,6,"(41.74715024, -87.62800231)"
610200,James N Thorp Elementary School,ES,8914 S Buffalo Ave ,(773) 535-6250,91.8,45.4,NULL,NULL,NULL,449,NULL,1.50E+14,1199554.7,1846396.13,41.73331035,-87.54451462,46,SOUTH CHICAGO,10,4,"(41.73331035, -87.54451462)"
609680,Walter Payton College Preparatory High School,HS,1034 N Wells St ,(773) 534-0034,93.4,0.7,96.4,96.9,82.4,881,90.7,1.50E+14,1174484.638,1907490.082,41.90155157,-87.63453744,8,NEAR NORTH SIDE,27,18,"(41.90155157, -87.63453744)"
610056,Roswell B Mason Elementary School,ES,4217 W 18th St ,(773) 534-1530,92.4,31,NULL,NULL,NULL,479,NULL,1.50E+14,1148477.255,1891003.441,41.85685194,-87.73049117,29,NORTH LAWNDALE,24,10,"(41.85685194, -87.73049117)"
609848,Ira F Aldridge Elementary School,ES,630 E 131st St ,(773) 535-5614,92.9,49,NULL,NULL,NULL,285,NULL,1.50E+14,1182870.294,1818598.178,41.65743243,-87.60649623,54,RIVERDALE,9,5,"(41.65743243, -87.60649623)"
610038,Abraham Lincoln Elementary School,ES,615 W Kemper Pl ,(773) 534-5720,96,2,NULL,NULL,NULL,813,NULL,1.50E+14,1171699.458,1915829.428,41.92449696,-87.64452163,7,LINCOLN PARK,43,18,"(41.92449696, -87.64452163)"
610123,William Penn Elementary School,ES,1616 S Avers Ave ,(773) 534-1665,91.8,5.7,NULL,NULL,NULL,423,NULL,1.50E+14,1150967.365,1891574.242,41.85836995,-87.72133609,29,NORTH LAWNDALE,24,10,"(41.85836995, -87.72133609)"
609863,Christopher Columbus Elementary School,ES,1003 N Leavitt St ,(773) 534-4350,95.5,2.4,NULL,NULL,NULL,309,NULL,1.50E+14,1161595.965,1906670.676,41.89958139,-87.68190167,24,WEST TOWN,32,13,"(41.89958139, -87.68190167)"
610226,Socorro Sandoval Elementary School,ES,5534 S Saint Louis Ave ,(773) 535-0457,95.8,3.7,NULL,NULL,NULL,1186,NULL,1.50E+14,1153950.752,1867537.733,41.79235177,-87.71102417,63,GAGE PARK,14,8,"(41.79235177, -87.71102417)"
609722,Manley Career Academy High School,HS,2935 W Polk St ,(773) 534-6900,66.8,19.7,6.7,49,51.9,599,59.3,1.50E+14,1156776.858,1896186.78,41.87091163,-87.69988652,27,EAST GARFIELD PARK,28,11,"(41.87091163, -87.69988652)"
610308,Wilma Rudolph Elementary Learning Center,ES,110 N Paulina St ,(773) 534-7460,80,0,NULL,NULL,NULL,100,NULL,1.50E+14,1165013.632,1900863.727,41.88357478,-87.66951363,28,NEAR WEST SIDE,27,13,"(41.88357478, -87.66951363)"
609749,Northside College Preparatory High School,HS,5501 N Kedzie Ave ,(773) 534-3954,95.7,2.8,98,97.6,90.7,1053,95.9,1.50E+14,1154090.859,1936413.866,41.98135196,-87.70867192,13,NORTH PARK,40,17,"(41.98135196, -87.70867192)"
609958,Frank W Gunsaulus Elementary Scholastic Academy,ES,4420 S Sacramento Ave ,(773) 535-7215,96.6,87.3,NULL,NULL,NULL,867,NULL,1.50E+14,1157065.026,1875083.27,41.81299531,-87.69940042,58,BRIGHTON PARK,14,9,"(41.81299531, -87.69940042)"
610121,Washington Irving Elementary School,ES,749 S Oakley Blvd ,(773) 534-7295,95.6,15.1,NULL,NULL,NULL,482,NULL,1.50E+14,1161216.391,1896475.332,41.87161238,-87.68357939,28,NEAR WEST SIDE,25,12,"(41.87161238, -87.68357939)"
610352,Durkin Park Elementary School,ES,8445 S Kolin Ave ,(773) 535-2322,95.4,0.7,NULL,NULL,NULL,543,NULL,1.50E+14,1148934.857,1848010.352,41.73886352,-87.72991927,70,ASHBURN,18,8,"(41.73886352, -87.72991927)"
609856,Henry Clay Elementary School,ES,13231 S Burley Ave ,(773) 535-5600,95.2,6,NULL,NULL,NULL,633,NULL,1.50E+14,1199800.451,1817700.031,41.65455937,-87.544577,55,HEGEWISCH,10,4,"(41.65455937, -87.544577)"
609919,John Fiske Elementary School,ES,6145 S Ingleside Ave ,(773) 535-0990,92.9,37.1,NULL,NULL,NULL,254,NULL,1.50E+14,1183547.778,1864329.648,41.78290934,-87.60259685,42,WOODLAWN,20,3,"(41.78290934, -87.60259685)"
609938,Joseph E Gary Elementary School,ES,3740 W 31st St ,(773) 534-1455,96.1,16.8,NULL,NULL,NULL,1204,NULL,1.50E+14,1151739.739,1883825.92,41.83709246,-87.71870452,30,SOUTH LAWNDALE,22,10,"(41.83709246, -87.71870452)"
610212,Albany Park Multicultural Academy,MS,4929 N Sawyer Ave ,(773) 534-5108,97,2.3,NULL,NULL,NULL,266,NULL,1.50E+14,1153858.196,1932691.891,41.9711433,-87.70962725,14,ALBANY PARK,39,17,"(41.9711433, -87.70962725)"
610239,Richard J Daley Elementary Academy,ES,5024 S Wolcott Ave ,(773) 535-9091,94.9,44.2,NULL,NULL,NULL,797,NULL,1.50E+14,1164498.218,1871257.706,41.80234381,-87.67224309,61,NEW CITY,16,9,"(41.80234381, -87.67224309)"
610523,Edison Park Elementary School,ES,6220 N Olcott Ave ,(773) 534-0960,96.1,6.9,NULL,NULL,NULL,431,NULL,1.50E+14,1125476.537,1940915.071,41.99422812,-87.81380814,10,NORWOOD PARK,41,16,"(41.99422812, -87.81380814)"
610047,James Madison Elementary School,ES,7433 S Dorchester Ave ,(773) 535-0551,94.9,12.4,NULL,NULL,NULL,317,NULL,1.50E+14,1186872.582,1855846.347,41.75955224,-87.59067582,43,SOUTH SHORE,5,3,"(41.75955224, -87.59067582)"
610244,Michele Clark Academic Prep Magnet High School,HS,5101 W Harrison St ,(773) 534-6250,79.1,24.4,13,87.4,60.4,726,78.2,1.50E+14,1142209.317,1896792.791,41.87285714,-87.75335467,25,AUSTIN,24,15,"(41.87285714, -87.75335467)"
610013,Pilsen Elementary Community Academy,ES,1420 W 17th St ,(773) 534-7675,96,9.4,NULL,NULL,NULL,447,NULL,1.50E+14,1167068.653,1891878.989,41.85887606,-87.6622254,31,LOWER WEST SIDE,25,12,"(41.85887606, -87.6622254)"
610394,Uplift Community High School,HS,900 W Wilson Ave ,(773) 534-2875,88.7,8.1,19.6,62.4,65,473,91.4,1.50E+14,1169403.401,1930780.685,41.96557412,-87.65252191,3,UPTOWN,46,19,"(41.96557412, -87.65252191)"
610243,John Calhoun North Elementary School,ES,2833 W Adams St ,(773) 534-6940,95.9,4.6,NULL,NULL,NULL,328,NULL,1.50E+14,1157392.716,1898855.056,41.87822115,-87.69755292,27,EAST GARFIELD PARK,2,11,"(41.87822115, -87.69755292)"
610285,Granville T Woods Math & Science Academy Elementary School,ES,6206 S Racine Ave ,(773) 535-9250,91.9,41.5,NULL,NULL,NULL,402,NULL,1.50E+14,1169345.488,1863577.552,41.7811649,-87.65468845,67,WEST ENGLEWOOD,16,7,"(41.7811649, -87.65468845)"
609799,Alexander Graham Bell Elementary School,ES,3730 N Oakley Ave ,(773) 534-5150,96.3,6.3,NULL,NULL,NULL,998,NULL,1.50E+14,1160327.881,1924862.722,41.94952795,-87.68605496,5,NORTH CENTER,47,19,"(41.94952795, -87.68605496)"
610257,Morton School of Excellence,ES,431 N Troy St ,(773) 534-6791,93.6,73.9,NULL,NULL,NULL,349,NULL,1.50E+14,1155338.246,1902872.403,41.88928666,-87.7049885,23,HUMBOLDT PARK,27,13,"(41.88928666, -87.7049885)"
609725,Morgan Park High School,HS,1744 W Pryor Ave ,(773) 535-2550,84.2,11.1,33.6,80,78.5,1584,73.3,1.50E+14,1166609.57,1831085.382,41.69206041,-87.66564309,75,MORGAN PARK,19,22,"(41.69206041, -87.66564309)"
610381,Bronzeville Scholastic Academy High School,HS,4934 S Wabash Ave ,(773) 535-1150,92.3,16.2,14.7,85.3,73.2,550,71.1,1.50E+14,1177513.255,1872170.444,41.80456384,-87.62448408,38,GRAND BOULEVARD,3,2,"(41.80456384, -87.62448408)"
610251,Willa Cather Elementary School,ES,2908 W Washington Blvd ,(773) 534-6780,94.9,29.5,NULL,NULL,NULL,234,NULL,1.50E+14,1156925.053,1900584.719,41.882977,-87.69922315,27,EAST GARFIELD PARK,2,13,"(41.882977, -87.69922315)"
609698,William J Bogan High School,HS,3939 W 79th St ,(773) 535-2180,75.2,5.8,13.1,52.5,50,1656,67.1,1.50E+14,1151315.548,1851847.859,41.74934817,-87.72109673,70,ASHBURN,18,8,"(41.74934817, -87.72109673)"
609712,Emil G Hirsch Metropolitan High School,HS,7740 S Ingleside Ave ,(773) 535-3100,84.8,47.1,10.8,36.2,45.1,458,69.5,1.50E+14,1183865.127,1853710.216,41.7537612,-87.60176452,69,GREATER GRAND CROSSING,8,6,"(41.7537612, -87.60176452)"
610178,Theophilus Schmid Elementary School,ES,9755 S Greenwood Ave ,(773) 535-6235,92.1,67.1,NULL,NULL,NULL,185,NULL,1.50E+14,1185308.063,1840332.575,41.71701772,-87.59689622,50,PULLMAN,8,5,"(41.71701772, -87.59689622)"
609853,Salmon P Chase Elementary School,ES,2021 N Point St ,(773) 534-4185,95.4,18.5,NULL,NULL,NULL,504,NULL,1.50E+14,1158104.87,1913362.162,41.91801539,-87.69454144,22,LOGAN SQUARE,1,14,"(41.91801539, -87.69454144)"
609773,Louis A Agassiz Elementary School,ES,2851 N Seminary Ave ,(773) 534-5725,95.2,32.6,NULL,NULL,NULL,432,NULL,1.50E+14,1168495.925,1919310.804,41.93412004,-87.65619167,6,LAKE VIEW,44,19,"(41.93412004, -87.65619167)"
610143,William C Reavis Math & Science Specialty Elementary School,ES,834 E 50th St ,(773) 535-1060,93.5,37.2,NULL,NULL,NULL,311,NULL,1.50E+14,1182841.804,1872082.772,41.80420101,-87.6049443,39,KENWOOD,4,2,"(41.80420101, -87.6049443)"
610057,Fairfield Elementary Academy,ES,6201 S Fairfield Ave ,(773) 535-9500,93.4,43.4,NULL,NULL,NULL,604,NULL,1.50E+14,1159148.629,1863391.057,41.78086789,-87.69207758,66,CHICAGO LAWN,15,8,"(41.78086789, -87.69207758)"
609854,Frederic Chopin Elementary School,ES,2450 W Rice St ,(773) 534-4080,96.9,1.7,NULL,NULL,NULL,269,NULL,1.50E+14,1159698.085,1905621.056,41.89674048,-87.68890154,24,WEST TOWN,1,13,"(41.89674048, -87.68890154)"
609961,Ninos Heroes Elementary Academic Center,ES,8344 S Commercial Ave ,(773) 535-6694,93.9,25.9,NULL,NULL,NULL,435,NULL,1.50E+14,1197504.847,1850181.748,41.74374969,-87.55189813,46,SOUTH CHICAGO,10,4,"(41.74374969, -87.55189813)"
610062,George B McClellan Elementary School,ES,3527 S Wallace St ,(773) 535-1732,93.2,7.8,NULL,NULL,NULL,283,NULL,1.50E+14,1172917.689,1881398.625,41.82998962,-87.64106579,60,BRIDGEPORT,11,9,"(41.82998962, -87.64106579)"
610501,Austin Polytechnical Academy High School,HS,231 N Pine Ave ,(773) 534-6300,70.1,21.5,8.5,NULL,NULL,250,56.1,1.50E+14,1139494.763,1901274.258,41.88520477,-87.76321191,25,AUSTIN,28,15,"(41.88520477, -87.76321191)"
610105,Oriole Park Elementary School,ES,5424 N Oketo Ave ,(773) 534-1201,96.5,2.3,NULL,NULL,NULL,648,NULL,1.50E+14,1125978.285,1935191.982,41.97851501,-87.81209057,10,NORWOOD PARK,41,16,"(41.97851501, -87.81209057)"
609837,Andrew Carnegie Elementary School,ES,1414 E 61st Pl ,(773) 535-0530,94.6,6.2,NULL,NULL,NULL,730,NULL,1.50E+14,1186764.646,1864534.473,41.78339577,-87.59079649,42,WOODLAWN,20,3,"(41.78339577, -87.59079649)"
610054,John L Marsh Elementary School,ES,9822 S Exchange Ave ,(773) 535-6430,95.7,5.4,NULL,NULL,NULL,841,NULL,1.50E+14,1197424.97,1840279.493,41.71657908,-87.55251993,51,SOUTH DEERING,10,4,"(41.71657908, -87.55251993)"
610225,John Whistler Elementary School,ES,11533 S Ada St ,(773) 535-5560,92.4,11.1,NULL,NULL,NULL,375,NULL,1.50E+14,1169444.934,1828137.944,41.68391137,-87.65534733,53,WEST PULLMAN,34,5,"(41.68391137, -87.65534733)"
610280,Kate S Buckingham Special Education Center,ES,9207 S Phillips Ave ,(773) 535-6422,83.4,116.9,NULL,NULL,NULL,26,NULL,1.50E+14,1194146.741,1844346.869,41.72782129,-87.56439326,48,CALUMET HEIGHTS,7,4,"(41.72782129, -87.56439326)"
610392,World Language Academy High School,HS,3120 S Kostner Ave ,(773) 535-4334,91.6,4,14.6,69.4,48.1,382,76,1.50E+14,1147521.302,1883405.128,41.83601953,-87.73419465,30,SOUTH LAWNDALE,22,10,"(41.83601953, -87.73419465)"
609777,Phillip D Armour Elementary School,ES,950 W 33rd Pl ,(773) 535-4530,93.9,16,NULL,NULL,NULL,365,NULL,1.50E+14,1170302.817,1882796.194,41.8338821,-87.65061898,60,BRIDGEPORT,11,9,"(41.8338821, -87.65061898)"
609941,Asa Philip Randolph Elementary School,ES,7316 S Hoyne Ave ,(773) 535-9015,92.1,43.5,NULL,NULL,NULL,573,NULL,1.50E+14,1163589.689,1856037.765,41.76059741,-87.67600175,67,WEST ENGLEWOOD,17,7,"(41.76059741, -87.67600175)"
610060,Andrew Jackson Elementary Language Academy,ES,1340 W Harrison St ,(773) 534-7000,97.4,0.7,NULL,NULL,NULL,556,NULL,1.50E+14,1167364.912,1897512.032,41.87432724,-87.66097599,28,NEAR WEST SIDE,2,12,"(41.87432724, -87.66097599)"
609772,Jane Addams Elementary School,ES,10810 S Avenue H ,(773) 535-6210,96,5,NULL,NULL,NULL,928,NULL,1.50E+14,1202811.36,1833818.906,41.69871497,-87.53301251,52,EAST SIDE,10,4,"(41.69871497, -87.53301251)"
610385,Multicultural Academy of Scholarship,HS,3120 S Kostner Ave ,(773) 535-4242,89.2,22.4,21.1,58,58.5,324,78.7,1.50E+14,1147521.302,1883405.128,41.83601953,-87.73419465,30,SOUTH LAWNDALE,22,10,"(41.83601953, -87.73419465)"
610087,Blair Early Childhood Center,ES,6751 W 63rd Pl ,(773) 535-2076,80.2,0.8,NULL,NULL,NULL,137,NULL,1.50E+14,1132295.745,1861625.19,41.77652935,-87.79056836,64,CLEARING,23,8,"(41.77652935, -87.79056836)"
609808,Alex Haley Elementary Academy,ES,11411 S Eggleston Ave ,(773) 535-5340,94.9,2.9,NULL,NULL,NULL,525,NULL,1.50E+14,1175378.714,1829178.573,41.68663682,-87.63359476,49,ROSELAND,34,22,"(41.68663682, -87.63359476)"
609779,George Armstrong International Studies Elementary School,ES,2110 W Greenleaf Ave ,(773) 534-2150,96.3,8.1,NULL,NULL,NULL,1509,NULL,1.50E+14,1160591.979,1946966.544,42.01017628,-87.68446868,2,WEST RIDGE,50,24,"(42.01017628, -87.68446868)"
610535,Mason High School,HS,4217 W 18th St ,(773) 534-1530,90.4,44.3,NULL,NULL,NULL,48,40.9,1.50E+14,1148477.255,1891003.441,41.85685194,-87.73049117,29,NORTH LAWNDALE,24,10,"(41.85685194, -87.73049117)"
609896,Thomas Drummond Elementary School,ES,1845 W Cortland St ,(773) 534-4120,95.2,0.3,NULL,NULL,NULL,352,NULL,1.50E+14,1163566.562,1912627.608,41.91588634,-87.67449563,22,LOGAN SQUARE,32,14,"(41.91588634, -87.67449563)"
610198,Douglas Taylor Elementary School,ES,9912 S Avenue H ,(773) 535-6240,95.1,16.6,NULL,NULL,NULL,632,NULL,1.50E+14,1202756.093,1839915.488,41.71544589,-87.5330074,52,EAST SIDE,10,4,"(41.71544589, -87.5330074)"
609862,Edward Coles Elementary Language Academy,ES,8441 S Yates Blvd ,(773) 535-6550,95.1,24.9,NULL,NULL,NULL,554,NULL,1.50E+14,1193682.146,1849300.863,41.74142687,-87.56593332,46,SOUTH CHICAGO,7,4,"(41.74142687, -87.56593332)"
610117,Louis Pasteur Elementary School,ES,5825 S Kostner Ave ,(773) 535-2270,95,5,NULL,NULL,NULL,1173,NULL,1.50E+14,1148072.928,1865505.479,41.78688968,-87.73262962,62,WEST ELSDON,13,8,"(41.78688968, -87.73262962)"
609756,Marie Sklodowska Curie Metropolitan High School,HS,4959 S Archer Ave ,(773) 535-2100,85,9.1,22.9,76.1,61.3,3320,61,1.50E+14,1150928.132,1871413.203,41.80304615,-87.72200673,57,ARCHER HEIGHTS,14,8,"(41.80304615, -87.72200673)"
609739,George Washington High School,HS,3535 E 114th St ,(773) 535-5725,80.2,12.7,14,71.6,50.9,1524,78.6,1.50E+14,1201607.873,1829942.879,41.6881094,-87.5375501,52,EAST SIDE,10,4,"(41.6881094, -87.5375501)"
609994,William G Hibbard Elementary School,ES,3244 W Ainslie St ,(773) 534-5191,96.5,3,NULL,NULL,NULL,1239,NULL,1.50E+14,1153660.42,1932405.972,41.97036267,-87.71036214,14,ALBANY PARK,39,17,"(41.97036267, -87.71036214)"
610391,Robert Lindblom Math & Science Academy High School,HS,6130 S Wolcott Ave ,(773) 535-9300,92.7,2.1,29.1,68.9,85.9,916,83.3,1.50E+14,1164703.614,1863861.294,41.7820428,-87.67169858,67,WEST ENGLEWOOD,15,7,"(41.7820428, -87.67169858)"
609917,Fernwood Elementary School,ES,10041 S Union Ave ,(773) 535-2700,93.4,29,NULL,NULL,NULL,344,NULL,1.50E+14,1173454.065,1838113.389,41.71119799,-87.6403774,73,WASHINGTON HEIGHTS,34,22,"(41.71119799, -87.6403774)"
610232,Williams Multiplex Elementary School,ES,2710 S Dearborn St ,(773) 534-9245,91.6,17,NULL,NULL,NULL,266,NULL,1.50E+14,1176275.784,1886545.486,41.84403809,-87.62859008,35,DOUGLAS,3,1,"(41.84403809, -87.62859008)"
610305,George Leland Elementary School,ES,5221 W Congress Pkwy ,(773) 534-6340,92.6,3.3,NULL,NULL,NULL,182,NULL,1.50E+14,1141563.256,1897140.916,41.87382439,-87.75571809,25,AUSTIN,29,15,"(41.87382439, -87.75571809)"
610316,Amelia Earhart Options for Knowledge Elementary School,ES,1710 E 93rd St ,(773) 535-6416,96.3,33.4,NULL,NULL,NULL,264,NULL,1.50E+14,1189297.589,1843689.527,41.72613498,-87.58217727,48,CALUMET HEIGHTS,8,4,"(41.72613498, -87.58217727)"
610367,Oscar DePriest Elementary School,ES,139 S Parkside Ave ,(773) 534-6800,92.7,20,NULL,NULL,NULL,524,NULL,1.50E+14,1138681.703,1898643.037,41.87799914,-87.7662615,25,AUSTIN,29,15,"(41.87799914, -87.7662615)"
609764,Benito Juarez Community Academy High School,HS,2150 S Laflin St ,(773) 534-7030,83.7,17.2,14.8,56.2,48.8,1683,71.1,1.50E+14,1166665.696,1889615.348,41.85267306,-87.66376931,31,LOWER WEST SIDE,25,12,"(41.85267306, -87.66376931)"
610004,Countee Cullen Elementary School,ES,10650 S Eberhart Ave ,(773) 535-5375,94.1,36.9,NULL,NULL,NULL,233,NULL,1.50E+14,1181431.47,1834229.814,41.70036107,-87.61128176,49,ROSELAND,9,5,"(41.70036107, -87.61128176)"
610026,John H Kinzie Elementary School,ES,5625 S Mobile Ave ,(773) 535-2425,95.4,14.9,NULL,NULL,NULL,733,NULL,1.50E+14,1135391.774,1866445.86,41.78970398,-87.7791043,56,GARFIELD RIDGE,23,8,"(41.78970398, -87.7791043)"
609997,Oliver Wendell Holmes Elementary School,ES,955 W Garfield Blvd ,(773) 535-9025,87,139.8,NULL,NULL,NULL,334,NULL,1.50E+14,1170648.336,1868177.891,41.79376044,-87.64977785,68,ENGLEWOOD,16,7,"(41.79376044, -87.64977785)"
610368,Langston Hughes Elementary School,ES,240 W 104th St ,(773) 535-5075,90,27.5,NULL,NULL,NULL,424,NULL,1.50E+14,1176345.568,1836013.039,41.70536999,-87.62985093,49,ROSELAND,34,5,"(41.70536999, -87.62985093)"
610319,Evergreen Academy Middle School,MS,3537 S Paulina St ,(773) 535-4836,96.1,5.5,NULL,NULL,NULL,389,NULL,1.50E+14,1165638.817,1881113.479,41.829365,-87.66778007,59,MCKINLEY PARK,11,9,"(41.829365, -87.66778007)"
609713,Hyde Park Academy High School,HS,6220 S Stony Island Ave ,(773) 535-0880,70.5,18.5,11.1,51.1,57.6,1518,63.7,1.50E+14,1187898.897,1864121.427,41.78223539,-87.58665115,42,WOODLAWN,5,3,"(41.78223539, -87.58665115)"
609723,John Marshall Metropolitan High School,HS,3250 W Adams St ,(773) 534-6455,74.1,42.9,6.5,36.8,45.2,726,55.2,1.50E+14,1154542.583,1898925.511,41.87847194,-87.70801612,27,EAST GARFIELD PARK,28,11,"(41.87847194, -87.70801612)"
610291,Richard Henry Lee Elementary School,ES,6448 S Tripp Ave ,(773) 535-2255,95,21.8,NULL,NULL,NULL,832,NULL,1.50E+14,1149113.752,1861299.693,41.77532831,-87.72892174,65,WEST LAWN,13,8,"(41.77532831, -87.72892174)"
609821,Burnham Elementary Inclusive Academy,ES,1903 E 96th St ,(773) 535-6530,95.5,29.4,NULL,NULL,NULL,286,NULL,1.50E+14,1190566.496,1841647.953,41.72050221,-87.57759489,51,SOUTH DEERING,7,4,"(41.72050221, -87.57759489)"
610129,Josiah Pickard Elementary School,ES,2301 W 21st Pl ,(773) 535-7280,95.8,5.1,NULL,NULL,NULL,656,NULL,1.50E+14,1161333.371,1889647.219,41.85287295,-87.6833397,31,LOWER WEST SIDE,25,12,"(41.85287295, -87.6833397)"
609883,Charles S Deneen Elementary School,ES,7240 S Wabash Ave ,(773) 535-3035,93.8,39.5,NULL,NULL,NULL,551,NULL,1.50E+14,1177940.398,1856846.453,41.76250359,-87.62338156,69,GREATER GRAND CROSSING,6,3,"(41.76250359, -87.62338156)"
610271,Jensen Elementary Scholastic Academy,ES,3030 W Harrison St ,(773) 534-6840,93.1,17.2,NULL,NULL,NULL,364,NULL,1.50E+14,1156127.601,1897250.02,41.87384239,-87.70224149,27,EAST GARFIELD PARK,28,11,"(41.87384239, -87.70224149)"
610277,Anthony Overton Elementary School,ES,221 E 49th St ,(773) 535-1430,90.5,24.9,NULL,NULL,NULL,436,NULL,1.50E+14,1178699.353,1872549.026,41.80557578,-87.62012252,38,GRAND BOULEVARD,3,2,"(41.80557578, -87.62012252)"
609972,Helge A Haugan Elementary School,ES,4540 N Hamlin Ave ,(773) 534-5040,96.2,23.4,NULL,NULL,NULL,1299,NULL,1.50E+14,1150195.236,1930075.176,41.96403525,-87.72316496,14,ALBANY PARK,39,17,"(41.96403525, -87.72316496)"
609805,Scott Joplin Elementary School,ES,7931 S Honore St ,(773) 535-3425,95,44.5,NULL,NULL,NULL,538,NULL,1.50E+14,1165441.875,1851949.948,41.74934082,-87.66932903,71,AUBURN GRESHAM,18,6,"(41.74934082, -87.66932903)"
610191,Stone Elementary Scholastic Academy,ES,6239 N Leavitt St ,(773) 534-2045,96.4,1.9,NULL,NULL,NULL,646,NULL,1.50E+14,1160554.673,1941569.632,41.99536777,-87.68475636,2,WEST RIDGE,50,24,"(41.99536777, -87.68475636)"
610114,Francis Parkman Elementary School,ES,245 W 51st St ,(773) 535-1739,90.6,20.7,NULL,NULL,NULL,224,NULL,1.50E+14,1175207.047,1871107.604,41.80169919,-87.63297392,37,FULLER PARK,3,9,"(41.80169919, -87.63297392)"
609737,Friedrich W von Steuben Metropolitan Science High School,HS,5039 N Kimball Ave ,(773) 534-5100,87,4,34.6,88.2,78.5,1636,76.8,1.50E+14,1152840.522,1933431.315,41.9731926,-87.71334969,13,NORTH PARK,39,17,"(41.9731926, -87.71334969)"
609842,Rachel Carson Elementary School,ES,5516 S Maplewood Ave ,(773) 535-9222,97.6,3.9,NULL,NULL,NULL,1222,NULL,1.50E+14,1160271.679,1867913.54,41.79325514,-87.68783576,63,GAGE PARK,16,8,"(41.79325514, -87.68783576)"
610016,Kate S Kellogg Elementary School,ES,9241 S Leavitt St ,(773) 535-2590,96.3,12,NULL,NULL,NULL,283,NULL,1.50E+14,1163362.184,1843156.174,41.72525315,-87.67719555,72,BEVERLY,19,22,"(41.72525315, -87.67719555)"
609928,Melville W Fuller Elementary School,ES,4214 S Saint Lawrence Ave ,(773) 535-1687,91.8,40.2,NULL,NULL,NULL,241,NULL,1.50E+14,1180924.721,1877097.464,41.8180061,-87.61182077,38,GRAND BOULEVARD,4,2,"(41.8180061, -87.61182077)"
610192,Harriet Beecher Stowe Elementary School,ES,3444 W Wabansia Ave ,(773) 534-4175,93.8,13.7,NULL,NULL,NULL,893,NULL,1.50E+14,1153019.365,1911120.258,41.91196584,-87.7132855,23,HUMBOLDT PARK,26,14,"(41.91196584, -87.7132855)"
610174,James Shields Elementary School,ES,4250 S Rockwell St ,(773) 535-7285,97,13.9,NULL,NULL,NULL,1834,NULL,1.50E+14,1159705.642,1876174.268,41.81593528,-87.68968453,58,BRIGHTON PARK,12,9,"(41.81593528, -87.68968453)"
609745,Southside Occupational Academy High School,HS,7342 S Hoyne Ave ,(773) 535-9100,85.5,13.1,40,71.7,NULL,201,NULL,1.50E+14,1163596.617,1855772.059,41.75986813,-87.6759838,67,WEST ENGLEWOOD,17,7,"(41.75986813, -87.6759838)"
609885,Dewey Elementary Academy of Fine Arts,ES,5415 S Union Ave ,(773) 535-1666,90.7,26.3,NULL,NULL,NULL,357,NULL,1.50E+14,1172596.05,1868881.791,41.7956493,-87.642615,61,NEW CITY,3,9,"(41.7956493, -87.642615)"
610103,Isabelle C O'Keeffe Elementary School,ES,6940 S Merrill Ave ,(773) 535-0600,92.1,24.6,NULL,NULL,NULL,575,NULL,1.50E+14,1191708.826,1859191.464,41.76861557,-87.57284299,43,SOUTH SHORE,5,3,"(41.76861557, -87.57284299)"
609819,Edmond Burke Elementary School,ES,5356 S King Dr ,(773) 535-1325,89.3,82,NULL,NULL,NULL,244,NULL,1.50E+14,1179801.469,1869357.523,41.79679285,-87.61617809,40,WASHINGTON PARK,3,2,"(41.79679285, -87.61617809)"
609944,Virgil Grissom Elementary School,ES,12810 S Escanaba Ave ,(773) 535-5380,95.5,2.5,NULL,NULL,NULL,330,NULL,1.50E+14,1197378.736,1820556.064,41.66245712,-87.55334334,55,HEGEWISCH,10,4,"(41.66245712, -87.55334334)"
609817,Lyman A Budlong Elementary School,ES,2701 W Foster Ave ,(773) 534-2591,95.4,3.9,NULL,NULL,NULL,864,NULL,1.50E+14,1157387.173,1934388.087,41.97572652,-87.69660443,4,LINCOLN SQUARE,40,20,"(41.97572652, -87.69660443)"
609754,Chicago Military Academy High School,HS,3519 S Giles Ave ,(773) 534-9750,90.3,28.2,24.4,83.6,69.3,483,88.1,1.50E+14,1178881.169,1881647.166,41.83053768,-87.61917837,35,DOUGLAS,2,2,"(41.83053768, -87.61917837)"
609872,Manuel Perez Elementary School,ES,1241 W 19th St ,(773) 534-7650,95.9,7.3,NULL,NULL,NULL,426,NULL,1.50E+14,1168231.034,1890840.422,41.85600113,-87.6579887,31,LOWER WEST SIDE,25,12,"(41.85600113, -87.6579887)"
610534,Skinner North,ES,640 W Scott St ,(773) 534-8500,96.4,0,NULL,NULL,NULL,242,NULL,1.50E+14,1171670.974,1908773.84,41.9051367,-87.64483441,8,NEAR NORTH SIDE,27,18,"(41.9051367, -87.64483441)"
610543,Eric Solorio Academy High School,HS,5400 S St Louis Ave ,(773) 535-9070,92.2,3,NULL,NULL,NULL,581,85.6,1.50E+14,1153924.117,1868568.611,41.79518118,-87.71109447,63,GAGE PARK,14,8,"(41.79518118, -87.71109447)"
609692,Neal F Simeon Career Academy High School,HS,8147 S Vincennes Ave ,(773) 535-3200,78.6,2.1,14.8,75.2,74,1535,68.5,1.50E+14,1174719.074,1850730.192,41.74579217,-87.63537,44,CHATHAM,21,6,"(41.74579217, -87.63537)"
609694,John Hancock College Preparatory High School,HS,4034 W 56th St ,(773) 535-2410,78.2,7.5,22.6,56.1,45.9,967,87.4,1.50E+14,1150280.45,1867197.827,41.79149114,-87.72449161,62,WEST ELSDON,13,8,"(41.79149114, -87.72449161)"
610039,Carl von Linne Elementary School,ES,3221 N Sacramento Ave ,(773) 534-5262,95.8,1.8,NULL,NULL,NULL,644,NULL,1.50E+14,1155853.119,1921364.031,41.94001885,-87.70259825,21,AVONDALE,33,17,"(41.94001885, -87.70259825)"
609861,Henry R Clissold Elementary School,ES,2350 W 110th Pl ,(773) 535-2560,95.1,8.4,NULL,NULL,NULL,588,NULL,1.50E+14,1162450.244,1831415.599,41.69305404,-87.6808619,75,MORGAN PARK,19,22,"(41.69305404, -87.6808619)"
610199,Johnnie Colemon Elementary Academy,ES,1441 W 119th St ,(773) 535-3975,95.9,23.4,NULL,NULL,NULL,266,NULL,1.50E+14,1168705.904,1825787.71,41.67747786,-87.65812011,53,WEST PULLMAN,34,5,"(41.67747786, -87.65812011)"
609695,Roald Amundsen High School,HS,5110 N Damen Ave ,(773) 534-2320,81.1,8.7,16,64.6,49.1,1532,72.2,1.50E+14,1162034.157,1934187.196,41.97507922,-87.67952139,4,LINCOLN SQUARE,47,20,"(41.97507922, -87.67952139)"
609708,Edwin G Foreman High School,HS,3235 N LeClaire Ave ,(773) 534-3400,84.3,10.3,12.5,59.7,40.9,1716,75.6,1.50E+14,1141833.359,1921189.138,41.93981043,-87.7541302,15,PORTAGE PARK,30,16,"(41.93981043, -87.7541302)"
610231,National Teachers Elementary Academy,ES,55 W Cermak Rd ,(773) 534-9970,94.7,9.2,NULL,NULL,NULL,446,NULL,1.50E+14,1176061.392,1889726.757,41.85277255,-87.62928114,33,NEAR SOUTH SIDE,3,1,"(41.85277255, -87.62928114)"
609790,Clara Barton Elementary School,ES,7650 S Wolcott Ave ,(773) 535-3260,91.7,25.3,NULL,NULL,NULL,602,NULL,1.50E+14,1164981.896,1853724.297,41.75421962,-87.67096453,71,AUBURN GRESHAM,18,6,"(41.75421962, -87.67096453)"
609913,Elaine O Goodlow Elementary Magnet School,ES,2040 W 62nd St ,(773) 535-9365,91.6,47.5,NULL,NULL,NULL,419,NULL,1.50E+14,1163653.744,1863565.274,41.78125258,-87.67555599,67,WEST ENGLEWOOD,15,7,"(41.78125258, -87.67555599)"
609950,Josefa Ortiz De Dominguez Elementary School,ES,3000 S Lawndale Ave ,(773) 534-1600,95.8,3.6,NULL,NULL,NULL,793,NULL,1.50E+14,1152138.268,1884434.021,41.83875333,-87.71722614,30,SOUTH LAWNDALE,22,10,"(41.83875333, -87.71722614)"
610051,Northwest Middle School,MS,5252 W Palmer St ,(773) 534-3250,93.4,2.2,NULL,NULL,NULL,756,NULL,1.50E+14,1140773.188,1914158.944,41.92053845,-87.75820003,19,BELMONT CRAGIN,37,25,"(41.92053845, -87.75820003)"
610254,Dvorak Technology Academy,ES,3615 W 16th St ,(773) 534-1690,94.2,4.4,NULL,NULL,NULL,556,NULL,1.50E+14,1152488.851,1891762.257,41.85885599,-87.71574626,29,NORTH LAWNDALE,24,10,"(41.85885599, -87.71574626)"
610070,James B McPherson Elementary School,ES,4728 N Wolcott Ave ,(773) 534-2625,96.5,1.2,NULL,NULL,NULL,695,NULL,1.50E+14,1162923.519,1931558.605,41.96784758,-87.67632505,4,LINCOLN SQUARE,47,19,"(41.96784758, -87.67632505)"
609676,Paul Laurence Dunbar Career Academy High School,HS,3000 S King Dr ,(773) 534-9000,76.9,21.5,6.9,61.7,51.5,1456,65.7,1.50E+14,1179262.097,1885167.032,41.84018775,-87.61767315,35,DOUGLAS,2,1,"(41.84018775, -87.61767315)"
610281,Adam Clayton Powell Paideia Community Academy Elementary School,ES,7511 S South Shore Dr ,(773) 535-6650,95.6,15.7,NULL,NULL,NULL,521,NULL,1.50E+14,1196129.985,1856209.466,41.76032435,-87.55673627,43,SOUTH SHORE,7,4,"(41.76032435, -87.55673627)"
610216,John A Walsh Elementary School,ES,2015 S Peoria St ,(773) 534-7950,95.1,2.9,NULL,NULL,NULL,501,NULL,1.50E+14,1170942.07,1890439.543,41.85484214,-87.64804964,31,LOWER WEST SIDE,25,12,"(41.85484214, -87.64804964)"
610220,Thomas J Waters Elementary School,ES,4540 N Campbell Ave ,(773) 534-5090,96.1,0.4,NULL,NULL,NULL,590,NULL,1.50E+14,1158841.899,1930252.459,41.96434835,-87.69136881,4,LINCOLN SQUARE,47,19,"(41.96434835, -87.69136881)"
609978,Wendell Smith Elementary School,ES,744 E 103rd St ,(773) 535-5689,92.1,90,NULL,NULL,NULL,363,NULL,1.50E+14,1183210.11,1836877.16,41.70758462,-87.60468711,50,PULLMAN,8,5,"(41.70758462, -87.60468711)"
610043,Joseph Lovett Elementary School,ES,6333 W Bloomingdale Ave ,(773) 534-3130,95.4,16.1,NULL,NULL,NULL,490,NULL,1.50E+14,1133787.949,1911253.2,41.91269042,-87.78393402,25,AUSTIN,29,25,"(41.91269042, -87.78393402)"
609732,Charles P Steinmetz Academic Centre High School,HS,3030 N Mobile Ave ,(773) 534-3030,79.2,30.4,16.3,56.7,47,1890,70.3,1.50E+14,1133838.348,1919613.694,41.93563171,-87.78355194,19,BELMONT CRAGIN,36,25,"(41.93563171, -87.78355194)"
609741,Gurdon S Hubbard High School,HS,6200 S Hamlin Ave ,(773) 535-2200,89.3,4.3,30.1,57.2,51.3,1672,64.5,1.50E+14,1152065.741,1863208.025,41.78050763,-87.71804991,65,WEST LAWN,13,8,"(41.78050763, -87.71804991)"
610242,Joseph Brennemann Elementary School,ES,4251 N Clarendon Ave ,(773) 534-5766,96.5,13.7,NULL,NULL,NULL,362,NULL,1.50E+14,1170183.793,1928747.67,41.95997841,-87.64971223,3,UPTOWN,46,19,"(41.95997841, -87.64971223)"
610180,John M Smyth Elementary School,ES,1059 W 13th St ,(773) 534-7180,92.4,20.1,NULL,NULL,NULL,475,NULL,1.50E+14,1169435.063,1894247.175,41.86532347,-87.65347031,28,NEAR WEST SIDE,2,12,"(41.86532347, -87.65347031)"
610078,Inter-American Elementary Magnet School,ES,851 W Waveland Ave ,(773) 534-5490,96.2,3,NULL,NULL,NULL,690,NULL,1.50E+14,1169719.256,1924734.562,41.94897646,-87.65153745,6,LAKE VIEW,44,19,"(41.94897646, -87.65153745)"
610234,Richard Yates Elementary School,ES,1839 N Richmond St ,(773) 534-4550,93.7,5.6,NULL,NULL,NULL,690,NULL,1.50E+14,1156561.083,1912262.258,41.91502858,-87.70024324,22,LOGAN SQUARE,35,14,"(41.91502858, -87.70024324)"
609720,Albert G Lane Technical High School,HS,2501 W Addison St ,(773) 534-5400,96.3,2.1,67.9,92.2,79.8,4368,90.7,1.50E+14,1158975.392,1923791.705,41.94661693,-87.69105603,5,NORTH CENTER,47,19,"(41.94661693, -87.69105603)"
610074,James Monroe Elementary School,ES,3651 W Schubert Ave ,(773) 534-4155,95.1,22.1,NULL,NULL,NULL,1125,NULL,1.50E+14,1151359.151,1917666.234,41.92996135,-87.71921246,22,LOGAN SQUARE,35,25,"(41.92996135, -87.71921246)"
609729,Carl Schurz High School,HS,3601 N Milwaukee Ave ,(773) 534-3420,81.2,13.8,9.7,62.1,40.4,2366,61.6,1.50E+14,1146851.198,1923627.843,41.94640794,-87.73562542,16,IRVING PARK,38,17,"(41.94640794, -87.73562542)"
610208,Mildred I Lavizzo Elementary School,ES,138 W 109th St ,(773) 535-5300,91.5,39.1,NULL,NULL,NULL,394,NULL,1.50E+14,1177114.736,1832710.465,41.69628998,-87.62713349,49,ROSELAND,34,5,"(41.69628998, -87.62713349)"
609736,Dyett High School,HS,555 E 51st St ,(773) 535-1825,62.5,24.4,3.3,33.7,51,318,37.1,1.50E+14,1180944.201,1871282.832,41.80204982,-87.61192836,40,WASHINGTON PARK,4,2,"(41.80204982, -87.61192836)"
610504,Velma F Thomas Early Childhood Center,ES,3625 S Hoyne Ave ,(773) 535-4088,,0,NULL,NULL,NULL,211,NULL,1.50E+14,1162992.823,1880511.57,41.82776914,-87.67750501,59,MCKINLEY PARK,11,9,"(41.82776914, -87.67750501)"
610304,Phoenix Military Academy High School,HS,145 S Campbell Ave ,(773) 534-7275,92.1,4.3,33.9,74.8,51.3,461,74.1,1.50E+14,1159815.389,1899102.492,41.87885054,-87.68865058,28,NEAR WEST SIDE,2,11,"(41.87885054, -87.68865058)"
609829,John C Burroughs Elementary School,ES,3542 S Washtenaw Ave ,(773) 535-7226,95.6,0.2,NULL,NULL,NULL,510,NULL,1.50E+14,1158904.877,1880879.379,41.8288631,-87.69249318,58,BRIGHTON PARK,12,9,"(41.8288631, -87.69249318)"
610224,West Pullman Elementary School,ES,11941 S Parnell Ave ,(773) 535-5500,91.2,7.6,NULL,NULL,NULL,343,NULL,1.50E+14,1174831.25,1825538.503,41.67666008,-87.63570683,53,WEST PULLMAN,34,5,"(41.67666008, -87.63570683)"
610136,William H Prescott Elementary School,ES,1632 W Wrightwood Ave ,(773) 534-5505,93.5,73.9,NULL,NULL,NULL,240,NULL,1.50E+14,1164875.342,1917368.608,41.92886824,-87.66955245,7,LINCOLN PARK,32,19,"(41.92886824, -87.66955245)"
609674,Chicago Vocational Career Academy High School,HS,2100 E 87th St ,(773) 535-6100,68.8,33.3,7,49.5,54,833,44.1,1.50E+14,1191700.593,1847743.551,41.73720173,-87.57324389,45,AVALON PARK,8,4,"(41.73720173, -87.57324389)"
610187,Graeme Stewart Elementary School,ES,4525 N Kenmore Ave ,(773) 534-2640,95.2,77,NULL,NULL,NULL,280,NULL,1.50E+14,1168446.748,1930325.571,41.96434608,-87.65605252,3,UPTOWN,46,19,"(41.96434608, -87.65605252)"
609830,Milton Brunson Math & Science Specialty Elementary School ,ES,932 N Central Ave ,(773) 534-6025,91.3,16.6,NULL,NULL,NULL,658,NULL,1.50E+14,1138802.71,1905814.957,41.89767761,-87.76564297,25,AUSTIN,29,15,"(41.89767761, -87.76564297)"
610279,Henry O Tanner Elementary School,ES,7350 S Evans Ave ,(773) 535-3870,91.8,43.1,NULL,NULL,NULL,448,NULL,1.50E+14,1182462.062,1856226.416,41.76069854,-87.60682834,69,GREATER GRAND CROSSING,6,3,"(41.76069854, -87.60682834)"
610355,Mary E Courtenay Elementary Language Arts Center,ES,1726 W Berteau Ave ,(773) 534-5790,94.9,10.8,NULL,NULL,NULL,257,NULL,1.50E+14,1164156.393,1927985.538,41.9580169,-87.6718933,6,LAKE VIEW,47,19,"(41.9580169, -87.6718933)"
610299,William A Hinton Elementary School,ES,644 W 71st St ,(773) 535-3875,91.7,28.9,NULL,NULL,NULL,321,NULL,1.50E+14,1173035.972,1857848.339,41.76536255,-87.6413274,68,ENGLEWOOD,6,7,"(41.76536255, -87.6413274)"
610223,Daniel S Wentworth Elementary School,ES,6950 S Sangamon St ,(773) 535-3394,91.6,73.8,NULL,NULL,NULL,365,NULL,1.50E+14,1171140.355,1858532.558,41.76728177,-87.64825544,68,ENGLEWOOD,17,7,"(41.76728177, -87.64825544)"
610036,Leslie Lewis Elementary School,ES,1431 N Leamington Ave ,(773) 534-3060,91.8,37.7,NULL,NULL,NULL,565,NULL,1.50E+14,1141810.292,1909168.612,41.90682528,-87.75451319,25,AUSTIN,37,25,"(41.90682528, -87.75451319)"
609828,Jonathan Burr Elementary School,ES,1621 W Wabansia Ave ,(773) 534-4090,95.9,4.3,NULL,NULL,NULL,348,NULL,1.50E+14,1165168.464,1911344.181,41.91233061,-87.66864691,24,WEST TOWN,1,14,"(41.91233061, -87.66864691)"
610031,Jean D Lafayette Elementary School,ES,2714 W Augusta Blvd ,(773) 534-4326,94.1,14.3,NULL,NULL,NULL,474,NULL,1.50E+14,1158045.392,1906579.348,41.89940402,-87.69494543,24,WEST TOWN,1,13,"(41.89940402, -87.69494543)"
610205,Lyman Trumbull Elementary School,ES,5200 N Ashland Ave ,(773) 534-2430,94.3,17.8,NULL,NULL,NULL,438,NULL,1.50E+14,1164684.835,1934622.012,41.97621644,-87.6697616,77,EDGEWATER,40,20,"(41.97621644, -87.6697616)"
610229,A.N. Pritzker School,ES,2009 W Schiller St ,(773) 534-4415,94.6,36.5,NULL,NULL,NULL,669,NULL,1.50E+14,1162693.096,1909391.648,41.907025,-87.67779555,24,WEST TOWN,1,14,"(41.907025, -87.67779555)"
610287,Ashburn Community Elementary School,ES,8300 S Saint Louis Ave ,(773) 535-7860,95.5,28.5,NULL,NULL,NULL,490,NULL,1.50E+14,1154458.76,1849313.602,41.74233179,-87.70964592,70,ASHBURN,18,8,"(41.74233179, -87.70964592)"
609924,Fort Dearborn Elementary School,ES,9025 S Throop St ,(773) 535-2680,93.4,24.5,NULL,NULL,NULL,478,NULL,1.50E+14,1169287.183,1844810.538,41.72966698,-87.65544435,73,WASHINGTON HEIGHTS,21,22,"(41.72966698, -87.65544435)"
610172,William T Sherman Elementary School,ES,1000 W 52nd St ,(773) 535-1757,92.3,230.6,NULL,NULL,NULL,462,NULL,1.50E+14,1170500.817,1870373.159,41.79978772,-87.65025483,61,NEW CITY,16,9,"(41.79978772, -87.65025483)"
609960,Nathan Hale Elementary School,ES,6140 S Melvina ,(773) 535-2265,94.5,9.8,NULL,NULL,NULL,872,NULL,1.50E+14,1136092.792,1862988.841,41.78020486,-87.77661589,64,CLEARING,23,8,"(41.78020486, -87.77661589)"
610269,John T McCutcheon Elementary School,ES,4865 N Sheridan Rd ,(773) 534-2680,94,8.8,NULL,NULL,NULL,355,NULL,1.50E+14,1168789.535,1932738.462,41.97095968,-87.65472193,3,UPTOWN,48,20,"(41.97095968, -87.65472193)"
610366,Charles H Wacker Elementary School,ES,9746 S Morgan St ,(773) 535-2821,93.4,11.5,NULL,NULL,NULL,246,NULL,1.50E+14,1171336.009,1839924.624,41.7162148,-87.6480814,73,WASHINGTON HEIGHTS,21,22,"(41.7162148, -87.6480814)"
610115,Park Manor Elementary School,ES,7037 S Rhodes Ave ,(773) 535-3070,94.9,16.6,NULL,NULL,NULL,352,NULL,1.50E+14,1181167.289,1858324.511,41.76648584,-87.61150917,69,GREATER GRAND CROSSING,6,3,"(41.76648584, -87.61150917)"
609795,George Rogers Clark Elementary School,ES,1045 S Monitor Ave ,(773) 534-6225,93.9,14.4,NULL,NULL,NULL,297,NULL,1.50E+14,1137583.968,1894930.877,41.8678323,-87.77038158,25,AUSTIN,29,15,"(41.8678323, -87.77038158)"
610354,North River Elementary School,ES,4416 N Troy St ,(773) 534-0590,95.6,20.1,NULL,NULL,NULL,359,NULL,1.50E+14,1154546.547,1929268.921,41.96173669,-87.70718808,14,ALBANY PARK,33,17,"(41.96173669, -87.70718808)"
610146,Paul Revere Elementary School,ES,1010 E 72nd St ,(773) 535-0618,92.4,33.3,NULL,NULL,NULL,320,NULL,1.50E+14,1184267.268,1857526.238,41.76422335,-87.60017165,69,GREATER GRAND CROSSING,5,3,"(41.76422335, -87.60017165)"
609898,John F Eberhart Elementary School,ES,3400 W 65th Pl ,(773) 535-9190,95.3,13.1,NULL,NULL,NULL,1777,NULL,1.50E+14,1154822.365,1861019.383,41.7744471,-87.70800189,66,CHICAGO LAWN,15,8,"(41.7744471, -87.70800189)"
609780,Ames Middle School,MS,1920 N Hamlin Ave ,(773) 534-4970,94.3,5.3,NULL,NULL,NULL,586,NULL,1.50E+14,1150696.779,1912593.823,41.91605519,-87.72177945,22,LOGAN SQUARE,26,25,"(41.91605519, -87.72177945)"
610119,Elizabeth Peabody Elementary School,ES,1444 W Augusta Blvd ,(773) 534-4170,95.2,7.6,NULL,NULL,NULL,289,NULL,1.50E+14,1166416.965,1906812.638,41.89986912,-87.66419014,24,WEST TOWN,27,13,"(41.89986912, -87.66419014)"
610020,Francis Scott Key Elementary School,ES,517 N Parkside Ave ,(773) 534-6230,91.9,39.6,NULL,NULL,NULL,301,NULL,1.50E+14,1138633.137,1902956.198,41.88983589,-87.76633519,25,AUSTIN,29,15,"(41.88983589, -87.76633519)"
610037,Arthur A Libby Elementary School,ES,5300 S Loomis Blvd ,(773) 535-9050,90.8,21.6,NULL,NULL,NULL,539,NULL,1.50E+14,1167858.322,1869572.502,41.79764784,-87.65996858,61,NEW CITY,16,9,"(41.79764784, -87.65996858)"
610170,Columbia Explorers Elementary Academy,ES,4520 S Kedzie Ave ,(773) 535-4050,95.4,8.9,NULL,NULL,NULL,1038,NULL,1.50E+14,1155752.301,1874367.234,41.81105689,-87.70423481,58,BRIGHTON PARK,14,8,"(41.81105689, -87.70423481)"
609826,Rosario Castellanos Elementary School,ES,2524 S Central Park Ave ,(773) 534-1620,96.3,24.3,NULL,NULL,NULL,525,NULL,1.50E+14,1152737.279,1886876.128,41.84544296,-87.71496352,30,SOUTH LAWNDALE,22,10,"(41.84544296, -87.71496352)"
610390,Hyman G Rickover Naval Academy High School,HS,5900 N Glenwood Ave ,(773) 534-2890,92.9,15.4,23.4,63,63.5,423,90.7,1.50E+14,1165871.81,1939308.369,41.98905063,-87.66526222,77,EDGEWATER,48,20,"(41.98905063, -87.66526222)"
610530,South Shore Fine Arts Academy,ES,1415 E 70th St ,(773) 535-8340,93.6,22.4,NULL,NULL,NULL,255,NULL,1.50E+14,1186924.786,1858826.102,41.76772772,-87.59039017,43,SOUTH SHORE,5,3,"(41.76772772, -87.59039017)"
610044,James Russell Lowell Elementary School,ES,3320 W Hirsch St ,(773) 534-4300,93.2,11.2,NULL,NULL,NULL,593,NULL,1.50E+14,1153864.623,1909151.595,41.90654684,-87.71023279,23,HUMBOLDT PARK,26,14,"(41.90654684, -87.71023279)"
609900,George W Curtis Elementary School,ES,32 E 115th St ,(773) 535-5050,93.8,18.2,NULL,NULL,NULL,504,NULL,1.50E+14,1178641.811,1828771.262,41.68544575,-87.62166148,49,ROSELAND,9,5,"(41.68544575, -87.62166148)"
610206,Mark Twain Elementary School,ES,5134 S Lotus Ave ,(773) 535-2290,96.3,5.3,NULL,NULL,NULL,1161,NULL,1.50E+14,1140861.083,1869888.283,41.79905206,-87.75896524,56,GARFIELD RIDGE,23,8,"(41.79905206, -87.75896524)"
610148,Cesar E Chavez Multicultural Academic Center Elementary School,ES,4747 S Marshfield Ave ,(773) 535-4600,95.1,11.1,NULL,NULL,NULL,915,NULL,1.50E+14,1166186.662,1873024.079,41.80715514,-87.66600055,61,NEW CITY,20,9,"(41.80715514, -87.66600055)"
610147,Philip Rogers Elementary School,ES,7345 N Washtenaw Ave ,(773) 534-2125,96.4,3,NULL,NULL,NULL,735,NULL,1.50E+14,1157132.164,1948795.474,42.01526618,-87.69714858,2,WEST RIDGE,50,24,"(42.01526618, -87.69714858)"
609804,Daniel Boone Elementary School,ES,6710 N Washtenaw Ave ,(773) 534-2160,95.5,10.5,NULL,NULL,NULL,752,NULL,1.50E+14,1157068.657,1944483.472,42.00343519,-87.69750011,2,WEST RIDGE,50,24,"(42.00343519, -87.69750011)"
610133,Laura S Ward Elementary School,ES,410 N Monticello Ave ,(773) 534-6440,92.9,3.9,NULL,NULL,NULL,429,NULL,1.50E+14,1151927.188,1902542.787,41.88845002,-87.71752405,23,HUMBOLDT PARK,27,11,"(41.88845002, -87.71752405)"
610179,Washington D Smyser Elementary School,ES,4310 N Melvina Ave ,(773) 534-3711,95.5,4.9,NULL,NULL,NULL,1047,NULL,1.50E+14,1134202.834,1928091.892,41.95889037,-87.78201198,15,PORTAGE PARK,38,16,"(41.95889037, -87.78201198)"
610252,Robert Nathaniel Dett Elementary School,ES,2306 W Maypole Ave ,(773) 534-7160,94.4,6.9,NULL,NULL,NULL,250,NULL,1.50E+14,1160870.308,1900992.919,41.88401623,-87.68472465,28,NEAR WEST SIDE,2,13,"(41.88401623, -87.68472465)"
610405,Suder Montessori Magnet Elementary School,ES,2022 W Washington Blvd ,(773) 534-7685,96.6,6.5,NULL,NULL,NULL,351,NULL,1.50E+14,1162799.297,1900725.344,41.88324176,-87.67764871,28,NEAR WEST SIDE,2,13,"(41.88324176, -87.67764871)"
610061,William J & Charles H Mayo Elementary School,ES,249 E 37th St ,(773) 535-1260,95.3,26,NULL,NULL,NULL,453,NULL,1.50E+14,1178726.235,1880476.124,41.82732778,-87.61978251,35,DOUGLAS,3,2,"(41.82732778, -87.61978251)"
609929,Robert Fulton Elementary School,ES,5300 S Hermitage Ave ,(773) 535-9000,95.1,10.1,NULL,NULL,NULL,466,NULL,1.50E+14,1165540.244,1869516.208,41.79754288,-87.66847093,61,NEW CITY,16,9,"(41.79754288, -87.66847093)"
609719,Lake View High School,HS,4015 N Ashland Ave ,(773) 534-5440,87.7,8.5,36.6,81.4,62.8,1500,87.3,1.50E+14,1164975.217,1926813.581,41.95478361,-87.66891643,6,LAKE VIEW,47,19,"(41.95478361, -87.66891643)"
610207,John H Vanderpoel Elementary Magnet School,ES,9510 S Prospect Ave ,(773) 535-2690,97.2,0.3,NULL,NULL,NULL,317,NULL,1.50E+14,1166544.213,1841551.135,41.72078152,-87.66558526,72,BEVERLY,19,22,"(41.72078152, -87.66558526)"
609768,Hope College Preparatory High School,HS,5515 S Lowe Ave ,(773) 535-3160,72.2,24,16.7,55.2,58.2,561,63.6,1.50E+14,1172948.54,1868120.666,41.79355292,-87.64134488,68,ENGLEWOOD,3,7,"(41.79355292, -87.64134488)"
609955,Walter Q Gresham Elementary School,ES,8524 S Green St ,(773) 535-3350,95.5,35.4,NULL,NULL,NULL,359,NULL,1.50E+14,1172094.314,1848202.308,41.73891334,-87.64506169,71,AUBURN GRESHAM,21,6,"(41.73891334, -87.64506169)"
610022,Joyce Kilmer Elementary School,ES,6700 N Greenview Ave ,(773) 534-2115,96,15.6,NULL,NULL,NULL,886,NULL,1.50E+14,1165015.365,1944631.682,42.00367622,-87.66826026,1,ROGERS PARK,40,24,"(42.00367622, -87.66826026)"
610120,Ferdinand Peck Elementary School,ES,3826 W 58th St ,(773) 535-2450,96.3,1.2,NULL,NULL,NULL,1560,NULL,1.50E+14,1151726.72,1865909.055,41.78792632,-87.71922211,62,WEST ELSDON,13,8,"(41.78792632, -87.71922211)"
609793,Nicholson Technology Academy,ES,6006 S Peoria St ,(773) 535-3285,93.4,6,NULL,NULL,NULL,464,NULL,1.50E+14,1171298.247,1864964.268,41.7849277,-87.64748868,68,ENGLEWOOD,16,7,"(41.7849277, -87.64748868)"
610209,Alessandro Volta Elementary School,ES,4950 N Avers Ave ,(773) 534-5080,96.4,22.5,NULL,NULL,NULL,1023,NULL,1.50E+14,1149774.095,1932831.151,41.97160605,-87.72464139,14,ALBANY PARK,39,17,"(41.97160605, -87.72464139)"
609761,George H Corliss High School,HS,821 E 103rd St ,(773) 535-5115,71.3,23.4,10.6,42.8,44,621,76.2,1.50E+14,1183649.971,1836810.314,41.70739096,-87.60307842,50,PULLMAN,9,5,"(41.70739096, -87.60307842)"
610086,Mount Vernon Elementary School,ES,10540 S Morgan St ,(773) 535-2825,93.3,76.6,NULL,NULL,NULL,290,NULL,1.50E+14,1171484.32,1834733.756,41.70196704,-87.64768959,73,WASHINGTON HEIGHTS,34,22,"(41.70196704, -87.64768959)"
609969,Bret Harte Elementary School,ES,1556 E 56th St ,(773) 535-0870,94.2,17.9,NULL,NULL,NULL,340,NULL,1.50E+14,1187805.484,1868216.424,41.7934746,-87.58686328,41,HYDE PARK,5,2,"(41.7934746, -87.58686328)"
610017,Maria Saucedo Elementary Scholastic Academy,ES,2850 W 24th Blvd ,(773) 534-1770,96.8,19.4,NULL,NULL,NULL,1306,NULL,1.50E+14,1157546.774,1887831.632,41.84796859,-87.69728712,30,SOUTH LAWNDALE,12,10,"(41.84796859, -87.69728712)"
609926,Franklin Elementary Fine Arts Center,ES,225 W Evergreen Ave ,(773) 534-8510,95.9,5.6,NULL,NULL,NULL,363,NULL,1.50E+14,1174204.012,1909317.563,41.90657253,-87.6355136,8,NEAR NORTH SIDE,43,18,"(41.90657253, -87.6355136)"
610073,Ellen Mitchell Elementary School,ES,2233 W Ohio St ,(773) 534-7655,95.5,12.2,NULL,NULL,NULL,344,NULL,1.50E+14,1161269.097,1903925.361,41.89205482,-87.68317867,24,WEST TOWN,26,13,"(41.89205482, -87.68317867)"
609811,Orville T Bright Elementary School,ES,10740 S Calhoun Ave ,(773) 535-6215,92.2,55.7,NULL,NULL,NULL,361,NULL,1.50E+14,1194858.644,1834119.778,41.69973969,-87.56212104,51,SOUTH DEERING,10,4,"(41.69973969, -87.56212104)"
609728,Theodore Roosevelt High School,HS,3436 W Wilson Ave ,(773) 534-5000,82.3,9.7,13.7,59.4,42.9,1490,61.2,1.50E+14,1152459.778,1930390.229,41.96485522,-87.71483051,14,ALBANY PARK,33,17,"(41.96485522, -87.71483051)"
610077,Donald Morrill Math & Science Elementary School,ES,6011 S Rockwell St ,(773) 535-9288,93.4,19.6,NULL,NULL,NULL,823,NULL,1.50E+14,1160111.796,1864645.298,41.78428993,-87.68851192,66,CHICAGO LAWN,15,8,"(41.78428993, -87.68851192)"
609910,Laughlin Falconer Elementary School,ES,3020 N Lamon Ave ,(773) 534-3560,96.1,5.7,NULL,NULL,NULL,1520,NULL,1.50E+14,1143139.285,1919727.764,41.93577597,-87.74936705,19,BELMONT CRAGIN,31,25,"(41.93577597, -87.74936705)"
609995,Rufus M Hitch Elementary School,ES,5625 N McVicker Ave ,(773) 534-1189,95.1,3.7,NULL,NULL,NULL,542,NULL,1.50E+14,1134940.195,1937129.571,41.98367756,-87.77908614,10,NORWOOD PARK,45,16,"(41.98367756, -87.77908614)"
610274,James Weldon Johnson Elementary School,ES,1420 S Albany Ave ,(773) 534-1829,94.7,1.4,NULL,NULL,NULL,365,NULL,1.50E+14,1155905.302,1892874.443,41.86183983,-87.7031756,29,NORTH LAWNDALE,24,10,"(41.86183983, -87.7031756)"
609880,Stephen Decatur Classical Elementary School,ES,7030 N Sacramento Ave ,(773) 534-2201,96.2,2.8,NULL,NULL,NULL,289,NULL,1.50E+14,1155108.239,1946608.822,42.00930696,-87.70465502,2,WEST RIDGE,50,24,"(42.00930696, -87.70465502)"
609881,Edward C Delano Elementary School,ES,3937 W Wilcox St ,(773) 534-6620,93.4,20.3,NULL,NULL,NULL,414,NULL,1.50E+14,1150012.228,1899002.166,41.87877166,-87.72464875,26,WEST GARFIELD PARK,28,11,"(41.87877166, -87.72464875)"
609850,Horace Greeley Elementary School,ES,832 W Sheridan Rd ,(773) 534-5800,95.9,6,NULL,NULL,NULL,611,NULL,1.50E+14,1169860.926,1926142.578,41.95283701,-87.65097549,6,LAKE VIEW,46,19,"(41.95283701, -87.65097549)"
609809,Lorenz Brentano Math & Science Academy Elementary School,ES,2723 N Fairfield Ave ,(773) 534-4100,94.7,9.2,NULL,NULL,NULL,455,NULL,1.50E+14,1157602.725,1918079.537,41.93097047,-87.69625758,22,LOGAN SQUARE,35,14,"(41.93097047, -87.69625758)"
609813,Charles S Brownell Elementary School,ES,6741 S Michigan Ave ,(773) 535-3030,92.8,14.1,NULL,NULL,NULL,310,NULL,1.50E+14,1178368.986,1860177.542,41.77163474,-87.62170972,69,GREATER GRAND CROSSING,20,3,"(41.77163474, -87.62170972)"
610193,William K New Sullivan Elementary School,ES,8331 S Mackinaw ,(773) 535-6585,90.3,27.3,NULL,NULL,NULL,527,NULL,1.50E+14,1199962.656,1850233.537,41.7438302,-87.542891,46,SOUTH CHICAGO,10,4,"(41.7438302, -87.542891)"
609760,George Washington Carver Military Academy High School,HS,13100 S Doty Ave ,(773) 535-5250,91.6,8.9,21.2,78.7,60.5,532,79.5,1.50E+14,1187202.39,1818214.083,41.65627709,-87.5906566,54,RIVERDALE,9,5,"(41.65627709, -87.5906566)"
609945,William C Goudy Elementary School,ES,5120 N Winthrop Ave ,(773) 534-2480,96.1,6,NULL,NULL,NULL,805,NULL,1.50E+14,1167897.992,1934499.505,41.97581137,-87.65794915,3,UPTOWN,48,20,"(41.97581137, -87.65794915)"
609968,Sharon Christa McAuliffe Elementary School,ES,1841 N Springfield Ave ,(773) 534-4400,93.9,14.2,NULL,NULL,NULL,862,NULL,1.50E+14,1150124.467,1912135.002,41.91480732,-87.72389409,20,HERMOSA,30,25,"(41.91480732, -87.72389409)"
609727,Wendell Phillips Academy High School,HS,244 E Pershing Rd ,(773) 535-1603,63,22,2.5,40.3,42.6,590,32.1,1.50E+14,1178735.106,1879229.78,41.82390751,-87.61978794,35,DOUGLAS,3,2,"(41.82390751, -87.61978794)"
609933,Stephen F Gale Elementary Community Academy,ES,1631 W Jonquil Ter ,(773) 534-2100,92.1,34.8,NULL,NULL,NULL,532,NULL,1.50E+14,1163959.517,1950960.205,42.02106425,-87.67196481,1,ROGERS PARK,49,24,"(42.02106425, -87.67196481)"
610142,William H Ray Elementary School,ES,5631 S Kimbark Ave ,(773) 535-0970,95.1,6.7,NULL,NULL,NULL,654,NULL,1.50E+14,1185667.78,1867788.013,41.79234967,-87.59471544,41,HYDE PARK,5,2,"(41.79234967, -87.59471544)"
610158,Harriet E Sayre Elementary Language Academy,ES,1850 N Newland Ave ,(773) 534-3351,96.2,2.6,NULL,NULL,NULL,605,NULL,1.50E+14,1129750.187,1911749.959,41.9141236,-87.79875667,25,AUSTIN,36,25,"(41.9141236, -87.79875667)"
610063,Cyrus H McCormick Elementary School,ES,2712 S Sawyer Ave ,(773) 535-7252,95.9,4.7,NULL,NULL,NULL,894,NULL,1.50E+14,1155096.537,1885727.878,41.84224508,-87.706336,30,SOUTH LAWNDALE,22,10,"(41.84224508, -87.706336)"
610134,Nathaniel Pope Elementary School,ES,1852 S Albany Ave ,(773) 534-1795,91.6,54.2,NULL,NULL,NULL,200,NULL,1.50E+14,1155971.872,1890640.068,41.85570712,-87.70299144,29,NORTH LAWNDALE,24,10,"(41.85570712, -87.70299144)"
610518,VOISE Academy High School,HS,231 N Pine Ave ,(773) 534-0660,84.5,25,NULL,NULL,NULL,410,82,1.50E+14,1139494.763,1901274.258,41.88520477,-87.76321191,25,AUSTIN,28,15,"(41.88520477, -87.76321191)"
609979,Robert Healy Elementary School,ES,3010 S Parnell Ave ,(773) 534-9190,96.6,11.3,NULL,NULL,NULL,1384,NULL,1.50E+14,1173077.292,1884891.36,41.83957045,-87.64037683,60,BRIDGEPORT,11,9,"(41.83957045, -87.64037683)"
610503,Frazier Prospective IB Magnet Elementary School,ES,4027 W Grenshaw St ,(773) 534-6880,96.8,7.2,NULL,NULL,NULL,220,NULL,1.50E+14,1149588.241,1894694.332,41.86695871,-87.72631742,29,NORTH LAWNDALE,24,11,"(41.86695871, -87.72631742)"
610210,Alexander von Humboldt Elementary School,ES,2620 W Hirsch St ,(773) 534-4480,92.5,185.5,NULL,NULL,NULL,398,NULL,1.50E+14,1158554.232,1909250.021,41.90672216,-87.69300325,24,WEST TOWN,26,14,"(41.90672216, -87.69300325)"
610006,Edward N Hurley Elementary School,ES,3849 W 69th Pl ,(773) 535-2068,95.4,12.2,NULL,NULL,NULL,830,NULL,1.50E+14,1151703.802,1858195.038,41.7667583,-87.71950804,65,WEST LAWN,13,8,"(41.7667583, -87.71950804)"
610169,Austin O Sexton Elementary School,ES,6020 S Langley Ave ,(773) 535-0640,90.5,8.6,NULL,NULL,NULL,337,NULL,1.50E+14,1181884.66,1865139.761,41.78517099,-87.60866927,42,WOODLAWN,20,3,"(41.78517099, -87.60866927)"
610365,Mary McLeod Bethune Elementary School,ES,3030 W Arthington St ,(773) 534-6890,93.3,25.8,NULL,NULL,NULL,362,NULL,1.50E+14,1156159.096,1895921.143,41.87019518,-87.70216173,27,EAST GARFIELD PARK,28,11,"(41.87019518, -87.70216173)"
609851,Thomas Chalmers Specialty Elementary School,ES,2745 W Roosevelt Rd ,(773) 534-1720,94.4,3.4,NULL,NULL,NULL,288,NULL,1.50E+14,1158048.936,1894554.926,41.8664078,-87.69526079,29,NORTH LAWNDALE,28,10,"(41.8664078, -87.69526079)"
610233,Elihu Yale Elementary School,ES,7025 S Princeton Ave ,(773) 535-3190,89.7,67.2,NULL,NULL,NULL,182,NULL,1.50E+14,1175551.272,1858262.194,41.76644232,-87.63209571,69,GREATER GRAND CROSSING,6,7,"(41.76644232, -87.63209571)"
609833,Charles P Caldwell Academy of Math & Science Elementary School,ES,8546 S Cregier ,(773) 535-6300,92.7,30.7,NULL,NULL,NULL,291,NULL,1.50E+14,1189641.205,1848463.627,41.73922735,-87.58076569,45,AVALON PARK,8,4,"(41.73922735, -87.58076569)"
609904,Edward K Ellington Elementary School,ES,243 N Parkside Ave ,(773) 534-6361,93.3,17.4,NULL,NULL,NULL,377,NULL,1.50E+14,1138584.642,1901378.002,41.885506,-87.76655157,25,AUSTIN,29,15,"(41.885506, -87.76655157)"
610094,Louis Nettelhorst Elementary School,ES,3252 N Broadway St ,(773) 534-5810,95.5,5.3,NULL,NULL,NULL,729,NULL,1.50E+14,1171628.585,1922072.58,41.94162999,-87.64459776,6,LAKE VIEW,44,19,"(41.94162999, -87.64459776)"
610276,Irvin C Mollison Elementary School,ES,4415 S Dr Martin L King Jr Dr ,(773) 535-1804,91.1,36.1,NULL,NULL,NULL,244,NULL,1.50E+14,1179638.34,1875750.718,41.81434006,-87.61658079,38,GRAND BOULEVARD,3,2,"(41.81434006, -87.61658079)"
610402,DeVry University Advantage Academy High School,HS,3300 N Campbell ,(773) 697-2216,96.7,0,40.6,NULL,63.3,200,NULL,1.50E+14,1159059.411,1921900.745,41.94142629,-87.6907993,5,NORTH CENTER,47,19,"(41.94142629, -87.6907993)"
610066,James E McDade Elementary Classical School,ES,8801 S Indiana Ave ,(773) 535-3669,96.2,0,NULL,NULL,NULL,199,NULL,1.50E+14,1179172.217,1846656.745,41.73451387,-87.61917677,44,CHATHAM,6,6,"(41.73451387, -87.61917677)"
610185,Adlai E Stevenson Elementary School,ES,8010 S Kostner Ave ,(773) 535-2280,95.7,2.3,NULL,NULL,NULL,1324,NULL,1.50E+14,1148427.165,1851012.215,41.74711093,-87.73170248,70,ASHBURN,13,8,"(41.74711093, -87.73170248)"
609789,John Barry Elementary School,ES,2828 N Kilbourn Ave ,(773) 534-3455,95.1,5.6,NULL,NULL,NULL,800,NULL,1.50E+14,1145852.597,1918556.652,41.93251118,-87.73942514,20,HERMOSA,31,25,"(41.93251118, -87.73942514)"
610177,Mark Skinner Elementary School,ES,1260 W Adams St ,(773) 534-7790,97.1,0,NULL,NULL,NULL,784,NULL,1.50E+14,1167788.281,1899265.832,41.87913069,-87.65937102,28,NEAR WEST SIDE,27,12,"(41.87913069, -87.65937102)"
610241,Guglielmo Marconi Elementary Community Academy,ES,230 N Kolmar Ave ,(773) 534-6210,91.5,58.8,NULL,NULL,NULL,245,NULL,1.50E+14,1145991.517,1900994.657,41.88431659,-87.73936153,26,WEST GARFIELD PARK,28,11,"(41.88431659, -87.73936153)"
609715,Thomas Kelly High School,HS,4136 S California Ave ,(773) 535-4900,89.3,5.8,22.1,67.4,46.4,2883,65.6,1.50E+14,1158337.786,1877175.576,41.81871101,-87.69467483,58,BRIGHTON PARK,14,9,"(41.81871101, -87.69467483)"
609925,Joseph Kellman Corporate Community Elementary School,ES,751 S Sacramento Blvd ,(773) 534-6602,95.2,4.4,NULL,NULL,NULL,293,NULL,1.50E+14,1156531.906,1896287.544,41.87119309,-87.70078311,27,EAST GARFIELD PARK,2,11,"(41.87119309, -87.70078311)"
609967,William F Finkl Elementary School,ES,2332 S Western Ave ,(773) 535-5850,95.2,6.7,NULL,NULL,NULL,588,NULL,1.50E+14,1160699.306,1888303.522,41.84919885,-87.68570412,31,LOWER WEST SIDE,25,10,"(41.84919885, -87.68570412)"
610085,Near North Elementary School,ES,739 N Ada St ,(773) 534-7845,80.2,58.3,NULL,NULL,NULL,91,NULL,1.50E+14,1167232.603,1905230.933,41.89551132,-87.66123981,24,WEST TOWN,27,13,"(41.89551132, -87.66123981)"
609711,William Rainey Harper High School,HS,6520 S Wood St ,(773) 535-9150,73,63.6,5.9,37,40.3,621,64.2,1.50E+14,1165424.867,1861341.255,41.77511222,-87.66912563,67,WEST ENGLEWOOD,15,7,"(41.77511222, -87.66912563)"
610542,West Ridge Elementary School,ES,6700 N Whipple St ,(773) 534-8250,94.9,6.8,NULL,NULL,NULL,659,NULL,1.50E+14,1154772.178,1944306.386,42.00299575,-87.70595357,2,WEST RIDGE,50,24,"(42.00299575, -87.70595357)"
610130,John T Pirie Fine Arts & Academic Center Elementary School,ES,650 E 85th St ,(773) 535-3435,93.5,20.8,NULL,NULL,NULL,384,NULL,1.50E+14,1182225.898,1848815.302,41.74036711,-87.60792289,44,CHATHAM,6,6,"(41.74036711, -87.60792289)"
610099,Norwood Park Elementary School,ES,5900 N Nina Ave ,(773) 534-1198,95.5,0.3,NULL,NULL,NULL,359,NULL,1.50E+14,1128430.406,1938729.626,41.98818136,-87.80299207,10,NORWOOD PARK,41,16,"(41.98818136, -87.80299207)"
610116,Parkside Elementary Community Academy,ES,6938 S East End Ave ,(773) 535-0940,89.8,90.7,NULL,NULL,NULL,348,NULL,1.50E+14,1188940.542,1859149.081,41.76856599,-87.58299131,43,SOUTH SHORE,5,3,"(41.76856599, -87.58299131)"
609989,Victor Herbert Elementary School,ES,2131 W Monroe St ,(773) 534-7806,92.8,10.3,NULL,NULL,NULL,398,NULL,1.50E+14,1162083.381,1899481.098,41.87984242,-87.68031236,28,NEAR WEST SIDE,2,12,"(41.87984242, -87.68031236)"
609707,Paul Robeson High School,HS,6835 S Normal Blvd ,(773) 535-3800,73.5,26.4,2.9,40.6,42.2,733,53.3,1.50E+14,1174171.884,1859450.314,41.76973341,-87.63711641,68,ENGLEWOOD,6,7,"(41.76973341, -87.63711641)"
610112,Francis W Parker Elementary Community Academy,ES,6800 S Stewart Ave ,(773) 535-3375,91.9,39,NULL,NULL,NULL,808,NULL,1.50E+14,1174661.546,1859841.533,41.77079606,-87.6353099,68,ENGLEWOOD,6,7,"(41.77079606, -87.6353099)"
610171,Arnold Mireles Elementary Academy,ES,9000 S Exchange Ave ,(773) 535-6360,92.8,11.8,NULL,NULL,NULL,905,NULL,1.50E+14,1197292.129,1845782.158,41.73168217,-87.55282373,46,SOUTH CHICAGO,10,4,"(41.73168217, -87.55282373)"
609887,Arthur Dixon Elementary School,ES,8306 S Saint Lawrence Ave ,(773) 535-3834,94.8,32.2,NULL,NULL,NULL,652,NULL,1.50E+14,1181644.805,1850009.577,41.74365776,-87.61001515,44,CHATHAM,6,6,"(41.74365776, -87.61001515)"
610137,Ernst Prussing Elementary School,ES,4650 N Menard Ave ,(773) 534-3460,95.4,23.4,NULL,NULL,NULL,672,NULL,1.50E+14,1136787.381,1930557.622,41.96561054,-87.77245066,15,PORTAGE PARK,45,16,"(41.96561054, -87.77245066)"
609942,Johann W von Goethe Elementary School,ES,2236 N Rockwell St ,(773) 534-4135,95.8,5.6,NULL,NULL,NULL,786,NULL,1.50E+14,1158528.612,1915119.213,41.9228282,-87.69293637,22,LOGAN SQUARE,1,14,"(41.9228282, -87.69293637)"
609922,Belmont-Cragin Elementary School,ES,2456 N Mango Ave ,(773) 534-2900,95.3,1.3,NULL,NULL,NULL,634,NULL,1.50E+14,1137592.32,1915980.764,41.92559567,-87.76984337,19,BELMONT CRAGIN,30,25,"(41.92559567, -87.76984337)"
609927,Foster Park Elementary School,ES,8530 S Wood St ,(773) 535-2725,93.7,33.6,NULL,NULL,NULL,418,NULL,1.50E+14,1165798.179,1847975.278,41.7384262,-87.66813597,71,AUBURN GRESHAM,18,6,"(41.7384262, -87.66813597)"
610228,John Greenleaf Whittier Elementary School,ES,1900 W 23rd St ,(773) 535-4590,94.9,3.8,NULL,NULL,NULL,409,NULL,1.50E+14,1164042.174,1888805.999,41.85050786,-87.67342126,31,LOWER WEST SIDE,25,10,"(41.85050786, -87.67342126)"
610345,Carter G Woodson South Elementary School,ES,4414 S Evans ,(773) 535-1280,91.9,70.5,NULL,NULL,NULL,329,NULL,1.50E+14,1181853.018,1875820.129,41.81447955,-87.60845505,38,GRAND BOULEVARD,3,2,"(41.81447955, -87.60845505)"
609709,Gage Park High School,HS,5630 S Rockwell St ,(773) 535-9230,72.5,19.5,7.9,52.8,40.3,1052,46,1.50E+14,1159962.875,1867094.347,41.79101352,-87.68899064,63,GAGE PARK,16,8,"(41.79101352, -87.68899064)"
610184,John Spry Elementary Community School,ES,2400 S Marshall Blvd ,(773) 534-1700,96.2,5.9,NULL,NULL,NULL,809,NULL,1.50E+14,1157044.911,1887895.675,41.84815451,-87.69912725,30,SOUTH LAWNDALE,12,10,"(41.84815451, -87.69912725)"
609788,Alice L Barnard Computer Math & Science Center Elementary School,ES,10354 S Charles St ,(773) 535-2625,95.6,28.5,NULL,NULL,NULL,274,NULL,1.50E+14,1168627.899,1835867.534,41.70514024,-87.65811642,72,BEVERLY,19,22,"(41.70514024, -87.65811642)"
609902,Ralph H Metcalfe Elementary Community Academy,ES,12339 S Normal Ave ,(773) 535-5590,94.9,22.3,NULL,NULL,NULL,489,NULL,1.50E+14,1175245.267,1822916.582,41.6694559,-87.63426928,53,WEST PULLMAN,34,5,"(41.6694559, -87.63426928)"
609908,Esmond Elementary School,ES,1865 W Montvale ,(773) 535-2650,92.9,34,NULL,NULL,NULL,342,NULL,1.50E+14,1165656.136,1830105.142,41.68939069,-87.66916143,75,MORGAN PARK,19,22,"(41.68939069, -87.66916143)"
610362,Medgar Evers Elementary School,ES,9811 S Lowe Ave ,(773) 535-2565,94.9,18.1,NULL,NULL,NULL,367,NULL,1.50E+14,1173743.636,1839743.298,41.7156643,-87.63926881,73,WASHINGTON HEIGHTS,21,22,"(41.7156643, -87.63926881)"
609844,William W Carter Elementary School,ES,5740 S Michigan Ave ,(773) 535-0860,91.2,27,NULL,NULL,NULL,371,NULL,1.50E+14,1178101.365,1866810.123,41.78984129,-87.62248974,40,WASHINGTON PARK,20,2,"(41.78984129, -87.62248974)"
609930,Frederick Funston Elementary School,ES,2010 N Central Park ,(773) 534-4125,94.7,16.8,NULL,NULL,NULL,619,NULL,1.50E+14,1152012.963,1913173.956,41.91762127,-87.71692852,22,LOGAN SQUARE,26,25,"(41.91762127, -87.71692852)"
610021,Pablo Casals Elementary School,ES,3501 W Potomac Ave ,(773) 534-4444,92,47.1,NULL,NULL,NULL,505,NULL,1.50E+14,1152770.808,1908388.615,41.90447488,-87.71427105,23,HUMBOLDT PARK,26,14,"(41.90447488, -87.71427105)"
610139,George M Pullman Elementary School,ES,11311 S Forrestville Ave ,(773) 535-5395,93.5,14.6,NULL,NULL,NULL,259,NULL,1.50E+14,1181982.459,1830019.85,41.68879566,-87.60939383,50,PULLMAN,9,5,"(41.68879566, -87.60939383)"
609730,Nicholas Senn High School,HS,5900 N Glenwood Ave ,(773) 534-2365,81.7,41.3,17.5,40.1,54.4,1053,79.8,1.50E+14,1165871.81,1939308.369,41.98905063,-87.66526222,77,EDGEWATER,48,20,"(41.98905063, -87.66526222)"
610339,Amos Alonzo Stagg Elementary School,ES,7424 S Morgan St ,(773) 535-3565,91.4,34.3,NULL,NULL,NULL,539,NULL,1.50E+14,1170892.32,1855485.867,41.75892669,-87.6492534,68,ENGLEWOOD,17,7,"(41.75892669, -87.6492534)"
609871,Barbara Vick Early Childhood & Family Center,ES,2554 W 113th St ,(773) 535-2671,60.9,0,NULL,NULL,NULL,204,NULL,1.50E+14,1161152.12,1829643.669,41.68821843,-87.6856634,75,MORGAN PARK,19,22,"(41.68821843, -87.6856634)"
609782,John J Audubon Elementary School,ES,3500 N Hoyne Ave ,(773) 534-5470,96.2,4.5,NULL,NULL,NULL,580,NULL,1.50E+14,1161693.811,1923258.727,41.94509808,-87.68107885,5,NORTH CENTER,47,19,"(41.94509808, -87.68107885)"
609954,John Milton Gregory Elementary School,ES,3715 W Polk St ,(773) 534-6820,95.2,3.2,NULL,NULL,NULL,323,NULL,1.50E+14,1151660.565,1896077.812,41.87071468,-87.71867323,27,EAST GARFIELD PARK,24,11,"(41.87071468, -87.71867323)"
610353,Calmeca Academy of Fine Arts and Dual Language,ES,3456 W 38th St ,(773) 535-7000,96.5,1.9,NULL,NULL,NULL,792,NULL,1.50E+14,1153706.842,1879216.756,41.82440547,-87.71160875,58,BRIGHTON PARK,12,9,"(41.82440547, -87.71160875)"
610132,Edgar Allan Poe Elementary Classical School,ES,10538 S Langley Ave ,(773) 535-5525,97.6,0,NULL,NULL,NULL,192,NULL,1.50E+14,1182742.505,1835063.9,41.70261965,-87.60645552,50,PULLMAN,9,5,"(41.70261965, -87.60645552)"
609971,John Harvard Elementary School of Excellence,ES,7525 S Harvard ,(773) 535-3045,93,8.7,NULL,NULL,NULL,476,NULL,1.50E+14,1175413.427,1854942.117,41.75733472,-87.63270008,69,GREATER GRAND CROSSING,17,6,"(41.75733472, -87.63270008)"
609857,Grover Cleveland Elementary School,ES,3121 W Byron St ,(773) 534-5130,95,6.1,NULL,NULL,NULL,688,NULL,1.50E+14,1154778.842,1925727.705,41.9520147,-87.70642927,16,IRVING PARK,33,17,"(41.9520147, -87.70642927)"
609734,William Howard Taft High School,HS,6530 W Bryn Mawr Ave ,(773) 534-1000,89.1,9.8,32.3,67.4,62.2,2922,77.3,1.50E+14,1131556.247,1936856.822,41.98298852,-87.7915383,10,NORWOOD PARK,41,16,"(41.98298852, -87.7915383)"
609796,Jean Baptiste Beaubien Elementary School,ES,5025 N Laramie Ave ,(773) 534-3500,95.7,7.4,NULL,NULL,NULL,1181,NULL,1.50E+14,1140829.242,1933051.044,41.97237914,-87.75752776,11,JEFFERSON PARK,45,16,"(41.97237914, -87.75752776)"
610084,Annie Keller Elementary Gifted Magnet School,ES,3020 W 108th St ,(773) 535-2636,97.5,4.9,NULL,NULL,NULL,245,NULL,1.50E+14,1157959.455,1832892.067,41.69719792,-87.6972638,74,MOUNT GREENWOOD,19,22,"(41.69719792, -87.6972638)"
610529,Ogden International High School,HS,1250 W Erie St ,(773) 534-0866,94.2,13.7,NULL,NULL,NULL,558,93.3,1.50E+14,1167748.1,1904529.595,41.8935757,-87.65936676,24,WEST TOWN,27,13,"(41.8935757, -87.65936676)"
610030,Charles Kozminski Elementary Community Academy,ES,936 E 54th St ,(773) 535-0980,92,55.6,NULL,NULL,NULL,403,NULL,1.50E+14,1183537.482,1869839.651,41.7980295,-87.60246287,41,HYDE PARK,4,2,"(41.7980295, -87.60246287)"
609952,Nathanael Greene Elementary School,ES,3525 S Honore ,(773) 535-4560,95.5,3.8,NULL,NULL,NULL,631,NULL,1.50E+14,1164636.276,1881214.535,41.82966356,-87.67145551,59,MCKINLEY PARK,11,9,"(41.82966356, -87.67145551)"
609963,Alexander Hamilton Elementary School,ES,1650 W Cornelia Ave ,(773) 534-5484,95.3,12.5,NULL,NULL,NULL,307,NULL,1.50E+14,1164474.274,1923334.414,41.94524725,-87.67085683,6,LAKE VIEW,32,19,"(41.94524725, -87.67085683)"
610141,Ravenswood Elementary School,ES,4332 N Paulina St ,(773) 534-5525,94.9,8.1,NULL,NULL,NULL,465,NULL,1.50E+14,1164402.827,1928980.278,41.96074129,-87.67095905,6,LAKE VIEW,47,19,"(41.96074129, -87.67095905)"
610011,Minnie Mars Jamieson Elementary School,ES,5650 N Mozart St ,(773) 534-2395,95.7,8.1,NULL,NULL,NULL,811,NULL,1.50E+14,1156286.231,1937618.645,41.98461372,-87.70056525,2,WEST RIDGE,40,20,"(41.98461372, -87.70056525)"
610106,Brian Piccolo Elementary Specialty School,ES,1040 N Keeler Ave ,(773) 534-4425,90.6,65.8,NULL,NULL,NULL,549,NULL,1.50E+14,1148146.922,1906778.22,41.9001461,-87.73129753,23,HUMBOLDT PARK,37,11,"(41.9001461, -87.73129753)"
610189,Joseph Stockton Elementary School,ES,4420 N Beacon St ,(773) 534-2450,94.9,11,NULL,NULL,NULL,462,NULL,1.50E+14,1166321.035,1929570.108,41.9623189,-87.66388983,3,UPTOWN,46,19,"(41.9623189, -87.66388983)"
610065,Emmett Louis Till Math and Science Academy,ES,6543 S Champlain Ave ,(773) 535-0570,88,95.7,NULL,NULL,NULL,471,NULL,1.50E+14,1181736.782,1861592.586,41.77544062,-87.60932095,42,WOODLAWN,20,3,"(41.77544062, -87.60932095)"
609991,Theodore Herzl Elementary School,ES,3711 W Douglas Blvd ,(773) 534-1480,90.8,23.9,NULL,NULL,NULL,512,NULL,1.50E+14,1151795.4,1892995.835,41.86225473,-87.71825927,29,NORTH LAWNDALE,24,10,"(41.86225473, -87.71825927)"
610076,Bernhard Moos Elementary School,ES,1711 N California Ave ,(773) 534-4340,93,45.5,NULL,NULL,NULL,429,NULL,1.50E+14,1157476.303,1911358.897,41.9125311,-87.69690545,24,WEST TOWN,1,14,"(41.9125311, -87.69690545)"
610282,Ronald E McNair Elementary School,ES,4820 W Walton St ,(773) 534-8980,90.7,52.8,NULL,NULL,NULL,422,NULL,1.50E+14,1143946.854,1905911.072,41.8978464,-87.74674645,25,AUSTIN,37,15,"(41.8978464, -87.74674645)"
609738,Lincoln Park High School,HS,2001 N Orchard St ,(773) 534-8130,84.6,9.2,53.6,77.9,75.5,2342,74.4,1.50E+14,1171322.336,1913569.392,41.91830362,-87.64597389,7,LINCOLN PARK,43,18,"(41.91830362, -87.64597389)"
610125,Irma C Ruiz Elementary School,ES,2410 S Leavitt St ,(773) 535-4825,95.5,15.9,NULL,NULL,NULL,916,NULL,1.50E+14,1162043.649,1887912.321,41.84809742,-87.68078114,31,LOWER WEST SIDE,25,10,"(41.84809742, -87.68078114)"
610009,Galileo Math & Science Scholastic Academy Elementary School,ES,820 S Carpenter St ,(773) 534-7070,95,3.1,NULL,NULL,NULL,606,NULL,1.50E+14,1169436.562,1896405.606,41.87124634,-87.65340205,28,NEAR WEST SIDE,25,12,"(41.87124634, -87.65340205)"
610369,Mahalia Jackson Elementary School,ES,917 W 88th St ,(773) 535-3341,92.5,35.7,NULL,NULL,NULL,323,NULL,1.50E+14,1171645.681,1846444.016,41.73409818,-87.64675679,71,AUBURN GRESHAM,21,22,"(41.73409818, -87.64675679)"
609884,William E Dever Elementary School,ES,3436 N Osceola Ave ,(773) 534-3090,95.5,2.1,NULL,NULL,NULL,843,NULL,1.50E+14,1125764.896,1922082.022,41.94254335,-87.813168,17,DUNNING,36,16,"(41.94254335, -87.813168)"
609899,Christian Ebinger Elementary School,ES,7350 W Pratt Ave ,(773) 534-1070,95.9,9.3,NULL,NULL,NULL,650,NULL,1.50E+14,1126172.537,1944639.095,42.00443557,-87.81116435,9,EDISON PARK,41,16,"(42.00443557, -87.81116435)"
610096,Florence Nightingale Elementary School,ES,5250 S Rockwell St ,(773) 535-9270,95.6,9.4,NULL,NULL,NULL,1382,NULL,1.50E+14,1159893.892,1869545.12,41.79774019,-87.68917624,63,GAGE PARK,14,9,"(41.79774019, -87.68917624)"
609849,George F Cassell Elementary School,ES,11314 S Spaulding Ave ,(773) 535-2640,94.4,13.8,NULL,NULL,NULL,358,NULL,1.50E+14,1156350.416,1829287.52,41.68733881,-87.70325179,74,MOUNT GREENWOOD,19,22,"(41.68733881, -87.70325179)"
609691,North-Grand High School,HS,4338 W Wabansia Ave ,(773) 534-8520,88.6,15.3,15.8,69.7,41.3,883,81.3,1.50E+14,1147041.135,1910981.274,41.91170094,-87.73525151,23,HUMBOLDT PARK,31,25,"(41.91170094, -87.73525151)"
610165,Franz Peter Schubert Elementary School,ES,2727 N Long Ave ,(773) 534-3080,95.8,2.1,NULL,NULL,NULL,949,NULL,1.50E+14,1139945.571,1917742.002,41.93038593,-87.76115305,19,BELMONT CRAGIN,31,25,"(41.93038593, -87.76115305)"
610266,Dumas Technology Academy,ES,6650 S Ellis Ave ,(773) 535-0750,92.5,38.4,NULL,NULL,NULL,381,NULL,1.50E+14,1183997.399,1860905.944,41.77350389,-87.60105531,42,WOODLAWN,5,3,"(41.77350389, -87.60105531)"
610092,Henry H Nash Elementary School,ES,4837 W Erie St ,(773) 534-6125,95.1,27.9,NULL,NULL,NULL,393,NULL,1.50E+14,1143836.768,1903833.453,41.89214724,-87.74720292,25,AUSTIN,28,15,"(41.89214724, -87.74720292)"
610176,John D Shoop Math-Science Technical Academy Elementary School,ES,11140 S Bishop St ,(773) 535-2715,93.2,40.8,NULL,NULL,NULL,553,NULL,1.50E+14,1168507.416,1830689.468,41.69093337,-87.65870614,75,MORGAN PARK,34,22,"(41.69093337, -87.65870614)"
610389,Orr Academy High School,HS,730 N Pulaski Rd ,(773) 534-6500,66.3,10.2,5.8,NULL,51.9,831,59.5,1.50E+14,1149548.53,1904711.708,41.89444828,-87.72620305,23,HUMBOLDT PARK,28,11,"(41.89444828, -87.72620305)"
610248,Chicago Academy Elementary School,ES,3400 N Austin Ave ,(773) 534-0146,96.3,6,NULL,NULL,NULL,601,NULL,1.50E+14,1135740.091,1922002.941,41.94215439,-87.77650575,17,DUNNING,38,16,"(41.94215439, -87.77650575)"
610055,Michael Faraday Elementary School,ES,3250 W Monroe St ,(773) 534-6670,93.3,39.4,NULL,NULL,NULL,194,NULL,1.50E+14,1154521.277,1899387.886,41.87974117,-87.70808199,27,EAST GARFIELD PARK,28,11,"(41.87974117, -87.70808199)"
610110,Ida B Wells Preparatory Elementary Academy,ES,244 E Pershing Rd ,(773) 535-1204,93.2,9.5,NULL,NULL,NULL,215,NULL,1.50E+14,1178735.106,1879229.78,41.82390751,-87.61978794,35,DOUGLAS,3,2,"(41.82390751, -87.61978794)"
610053,Marquette Elementary School,ES,6550 S Richmond St ,(773) 535-9260,93.1,64.6,NULL,NULL,NULL,1390,NULL,1.50E+14,1157806.476,1860844.388,41.77390682,-87.6970673,66,CHICAGO LAWN,15,8,"(41.77390682, -87.6970673)"
609702,Richard T Crane Technical Preparatory High School,HS,2245 W Jackson Blvd ,(773) 534-7550,57.9,19.9,3.7,48,32.6,478,40.9,1.50E+14,1161290.138,1898611.918,41.87747384,-87.68324922,28,NEAR WEST SIDE,2,12,"(41.87747384, -87.68324922)"
609986,Charles R Henderson Elementary School,ES,5650 S Wolcott Ave ,(773) 535-9080,89.2,80.6,NULL,NULL,NULL,407,NULL,1.50E+14,1164617.918,1866985.258,41.79061716,-87.67192466,67,WEST ENGLEWOOD,15,7,"(41.79061716, -87.67192466)"
610342,Albert R Sabin Elementary Magnet School,ES,2216 W Hirsch St ,(773) 534-4491,94.7,28.1,NULL,NULL,NULL,620,NULL,1.50E+14,1161265.299,1909314.592,41.90684338,-87.68304259,24,WEST TOWN,1,14,"(41.90684338, -87.68304259)"
609803,James G Blaine Elementary School,ES,1420 W Grace St ,(773) 534-5750,96.4,2.1,NULL,NULL,NULL,923,NULL,1.50E+14,1166063.167,1925373.268,41.95080812,-87.66495825,6,LAKE VIEW,44,19,"(41.95080812, -87.66495825)"
610253,Julia C Lathrop Elementary School,ES,1440 S Christiana Ave ,(773) 534-1812,90.5,113.5,NULL,NULL,NULL,83,NULL,1.50E+14,1154232.147,1892627.172,41.86119482,-87.7093241,29,NORTH LAWNDALE,24,10,"(41.86119482, -87.7093241)"
610321,Thurgood Marshall Middle School,MS,3900 N Lawndale Ave ,(773) 534-5200,94,18.1,NULL,NULL,NULL,435,NULL,1.50E+14,1150989.856,1925703.541,41.9520236,-87.72035833,16,IRVING PARK,39,17,"(41.9520236, -87.72035833)"
609820,Augustus H Burley Elementary School,ES,1630 W Barry Ave ,(773) 534-5475,96.5,0.7,NULL,NULL,NULL,572,NULL,1.50E+14,1164768.164,1920682.831,41.93796493,-87.66985204,6,LAKE VIEW,32,19,"(41.93796493, -87.66985204)"
609867,Peter Cooper Elementary Dual Language Academy,ES,1624 W 19th St ,(773) 534-7205,96.2,5.7,NULL,NULL,NULL,709,NULL,1.50E+14,1165708.517,1890841.583,41.85605839,-87.66724753,31,LOWER WEST SIDE,25,12,"(41.85605839, -87.66724753)"
610083,Daniel C Beard Elementary School,ES,6445 W Strong St ,(773) 534-1228,91.9,0,NULL,NULL,NULL,160,NULL,1.50E+14,1132103.024,1932162.514,41.97009738,-87.78963691,10,NORWOOD PARK,41,16,"(41.97009738, -87.78963691)"
610159,Jonathan Y Scammon Elementary School,ES,4201 W Henderson St ,(773) 534-3475,95.9,8,NULL,NULL,NULL,937,NULL,1.50E+14,1147787.325,1921900.296,41.94164944,-87.73222901,16,IRVING PARK,30,17,"(41.94164944, -87.73222901)"
609866,John C Coonley Elementary School,ES,4046 N Leavitt St ,(773) 534-5140,95.9,1.4,NULL,NULL,NULL,668,NULL,1.50E+14,1160924.137,1927061.47,41.95554905,-87.68380195,5,NORTH CENTER,47,19,"(41.95554905, -87.68380195)"
610182,Hannah G Solomon Elementary School,ES,6206 N Hamlin Ave ,(773) 534-5226,95.8,0.8,NULL,NULL,NULL,363,NULL,1.50E+14,1149868.813,1940981.795,41.99397007,-87.72407991,13,NORTH PARK,39,17,"(41.99397007, -87.72407991)"
610157,Sidney Sawyer Elementary School,ES,5248 S Sawyer Ave ,(773) 535-0440,96.8,7.4,NULL,NULL,NULL,1846,NULL,1.50E+14,1155567.996,1869433.427,41.79752155,-87.70504311,63,GAGE PARK,14,8,"(41.79752155, -87.70504311)"
610082,Mount Greenwood Elementary School,ES,10841 S Homan Ave ,(773) 535-2786,96,2.9,NULL,NULL,NULL,909,NULL,1.50E+14,1155639.216,1832346.852,41.69574845,-87.70577383,74,MOUNT GREENWOOD,19,22,"(41.69574845, -87.70577383)"
610249,Talman Elementary School,ES,5450 S Talman Ave ,(773) 535-7850,96.2,9.2,NULL,NULL,NULL,376,NULL,1.50E+14,1159597.93,1868206.829,41.79407382,-87.6902983,63,GAGE PARK,14,9,"(41.79407382, -87.6902983)"
610237,Ludwig Van Beethoven Elementary School,ES,25 W 47th St ,(773) 535-1480,93.7,11.4,NULL,NULL,NULL,411,NULL,1.50E+14,1176782.61,1873820.331,41.80910779,-87.62711401,38,GRAND BOULEVARD,3,2,"(41.80910779, -87.62711401)"
610312,Mary E McDowell Elementary School,ES,1419 E 89th St ,(773) 535-6404,95.5,3.1,NULL,NULL,NULL,188,NULL,1.50E+14,1187249.141,1846211.629,41.7331047,-87.58960096,48,CALUMET HEIGHTS,8,4,"(41.7331047, -87.58960096)"
610104,William J Onahan Elementary School,ES,6634 W Raven St ,(773) 534-1180,95.7,6.9,NULL,NULL,NULL,687,NULL,1.50E+14,1131111.88,1940800.44,41.99381787,-87.79308113,10,NORWOOD PARK,41,16,"(41.99381787, -87.79308113)"
610109,William Bishop Owen Scholastic Academy Elementary School,ES,8247 S Christiana Ave ,(773) 535-9330,96.9,1.2,NULL,NULL,NULL,243,NULL,1.50E+14,1155530.649,1849518.217,41.74287191,-87.70571301,70,ASHBURN,18,8,"(41.74287191, -87.70571301)"
610221,Daniel Webster Elementary School,ES,4055 W Arthington St ,(773) 534-6925,94.8,5.7,NULL,NULL,NULL,370,NULL,1.50E+14,1149263.609,1895759.896,41.86988904,-87.72748159,26,WEST GARFIELD PARK,24,11,"(41.86988904, -87.72748159)"
609746,Kenwood Academy High School,HS,5015 S Blackstone Ave ,(773) 535-1350,88.4,5.9,26.8,69.5,79.7,1852,70.3,1.50E+14,1186813.047,1871954.152,41.80375479,-87.59038395,39,KENWOOD,4,2,"(41.80375479, -87.59038395)"
609682,Ellen H Richards Career Academy High School,HS,5009 S Laflin St ,(773) 535-4945,90.6,17.3,5.5,57.3,43.1,473,63.5,1.50E+14,1167224.006,1871465.305,41.80285552,-87.66224052,61,NEW CITY,16,9,"(41.80285552, -87.66224052)"
609974,Hawthorne Elementary Scholastic Academy,ES,3319 N Clifton Ave ,(773) 534-5550,96.9,1.2,NULL,NULL,NULL,569,NULL,1.50E+14,1168069.526,1922284.759,41.94228994,-87.65767253,6,LAKE VIEW,44,19,"(41.94228994, -87.65767253)"
610499,Collins Academy High School,HS,1313 S Sacramento Dr ,(773) 534-1840,91.4,2.9,20.5,NULL,NULL,409,70.4,1.50E+14,1156217.24,1893722.861,41.86416169,-87.70200761,29,NORTH LAWNDALE,24,10,"(41.86416169, -87.70200761)"
609990,South Loop Elementary School,ES,1212 S Plymouth Ct ,(773) 534-8690,95.3,12.7,NULL,NULL,NULL,795,NULL,1.50E+14,1176190.878,1894860.267,41.86685634,-87.62865124,33,NEAR SOUTH SIDE,2,1,"(41.86685634, -87.62865124)"
610264,Walter Reed Elementary School,ES,6350 S Stewart Ave ,(773) 535-3075,92.4,75.5,NULL,NULL,NULL,44,NULL,1.50E+14,1174681.574,1862611.036,41.77839545,-87.63515406,68,ENGLEWOOD,20,7,"(41.77839545, -87.63515406)"
609679,Charles Allen Prosser Career Academy High School,HS,2148 N Long Ave ,(773) 534-3200,86,9.7,27.7,78.7,58,1415,79.4,1.50E+14,1139989.443,1913970.649,41.92003613,-87.76108432,19,BELMONT CRAGIN,37,25,"(41.92003613, -87.76108432)"
609797,Jacob Beidler Elementary School,ES,3151 W Walnut St ,(773) 534-6811,95.4,0.7,NULL,NULL,NULL,411,NULL,1.50E+14,1155122.862,1901415.832,41.88529401,-87.70581859,27,EAST GARFIELD PARK,27,13,"(41.88529401, -87.70581859)"
609891,James R Doolittle Jr Elementary School,ES,535 E 35th St ,(773) 535-1040,91.4,134.8,NULL,NULL,NULL,306,NULL,1.50E+14,1180586.11,1881863.446,41.8310921,-87.61291629,35,DOUGLAS,4,2,"(41.8310921, -87.61291629)"
609693,George Westinghouse High School,HS,3223 W Franklin Blvd ,(773) 534-6400,93.6,2,NULL,NULL,NULL,828,90.5,1.50E+14,1154695.243,1903109.304,41.88994963,-87.70734353,23,HUMBOLDT PARK,28,11,"(41.88994963, -87.70734353)"
610515,Disney II Magnet School,ES,3815 N Kedvale Ave ,(773) 534-3750,97.3,0,NULL,NULL,NULL,363,NULL,1.50E+14,1148206.405,1925121.479,41.95048055,-87.73060545,16,IRVING PARK,38,17,"(41.95048055, -87.73060545)"
610034,Lawndale Elementary Community Academy,ES,3500 W Douglas Blvd ,(773) 534-1635,91,18.8,NULL,NULL,NULL,508,NULL,1.50E+14,1153224.421,1893272.908,41.86298683,-87.71300615,29,NORTH LAWNDALE,24,10,"(41.86298683, -87.71300615)"
609759,Roberto Clemente Community Academy High School,HS,1147 N Western Ave ,(773) 534-4000,69.6,20.6,12.5,49.5,41.5,1016,58.9,1.50E+14,1160235.206,1907768.877,41.90262318,-87.68686934,24,WEST TOWN,1,13,"(41.90262318, -87.68686934)"
609855,Walter S Christopher Elementary School,ES,5042 S Artesian Ave ,(773) 535-9375,86.1,4,NULL,NULL,NULL,279,NULL,1.50E+14,1160846.21,1870985.96,41.8016744,-87.68564411,63,GAGE PARK,14,9,"(41.8016744, -87.68564411)"
609735,Edward Tilden Career Community Academy High School,HS,4747 S Union Ave ,(773) 535-1625,78.4,13,10.5,41.1,37,461,86.5,1.50E+14,1172475.474,1873203.826,41.80751207,-87.64292985,61,NEW CITY,11,9,"(41.80751207, -87.64292985)"
610284,New Field Elementary School,ES,1707 W Morse Ave ,(773) 534-2760,96.2,3.1,NULL,NULL,NULL,696,NULL,1.50E+14,1163673.054,1946078.682,42.00767533,-87.67315753,1,ROGERS PARK,49,24,"(42.00767533, -87.67315753)"
610263,John Foster Dulles Elementary School,ES,6311 S Calumet Ave ,(773) 535-0690,94.1,28.2,NULL,NULL,NULL,537,NULL,1.50E+14,1179581.237,1863162.082,41.779797,-87.61717494,69,GREATER GRAND CROSSING,20,3,"(41.779797, -87.61717494)"
609906,Robert Emmet Elementary School,ES,5500 W Madison St ,(773) 534-6050,89.8,30.1,NULL,NULL,NULL,460,NULL,1.50E+14,1139489.278,1899514.703,41.88037642,-87.76327497,25,AUSTIN,29,15,"(41.88037642, -87.76327497)"
609798,Hiram H Belding Elementary School,ES,4257 N Tripp Ave ,(773) 534-3590,95,21.3,NULL,NULL,NULL,672,NULL,1.50E+14,1147266.366,1928184.928,41.95890499,-87.73398223,16,IRVING PARK,38,17,"(41.95890499, -87.73398223)"
610348,Nathan R Goldblatt Elementary School,ES,4257 W Adams St ,(773) 534-6860,92.9,57.7,NULL,NULL,NULL,268,NULL,1.50E+14,1147813.932,1898625.597,41.87778081,-87.73273021,26,WEST GARFIELD PARK,28,11,"(41.87778081, -87.73273021)"
610227,Eli Whitney Elementary School,ES,2815 S Komensky Ave ,(773) 534-1560,95.8,11.6,NULL,NULL,NULL,1133,NULL,1.50E+14,1149877.98,1884894.804,41.84006197,-87.7255084,30,SOUTH LAWNDALE,22,10,"(41.84006197, -87.7255084)"
610088,Wolfgang A Mozart Elementary School,ES,2200 N Hamlin Ave ,(773) 534-4160,95.2,3.6,NULL,NULL,NULL,748,NULL,1.50E+14,1150644.396,1914368.955,41.92092734,-87.72192541,22,LOGAN SQUARE,35,25,"(41.92092734, -87.72192541)"
609864,John W Cook Elementary School,ES,8150 S Bishop St ,(773) 535-3315,94,26,NULL,NULL,NULL,482,NULL,1.50E+14,1168050.532,1850484.153,41.74526284,-87.6598119,71,AUBURN GRESHAM,21,6,"(41.74526284, -87.6598119)"
610052,Horace Mann Elementary School,ES,8050 S Chappel Ave ,(773) 535-6640,92.6,44.4,NULL,NULL,NULL,472,NULL,1.50E+14,1191225.84,1851783.833,41.74830012,-87.57485274,46,SOUTH CHICAGO,8,4,"(41.74830012, -87.57485274)"
609993,Agustin Lara Elementary Academy,ES,4619 S Wolcott Ave ,(773) 535-4389,95.5,10.4,NULL,NULL,NULL,556,NULL,1.50E+14,1164504.29,1873959.199,41.8097569,-87.6721446,61,NEW CITY,20,9,"(41.8097569, -87.6721446)"
609894,John B Drake Elementary School,ES,2722 S King Dr ,(773) 534-9129,93.8,43.3,NULL,NULL,NULL,249,NULL,1.50E+14,1179225.388,1886481.089,41.84379445,-87.61776768,35,DOUGLAS,4,1,"(41.84379445, -87.61776768)"
610002,Thomas Hoyne Elementary School,ES,8905 S Crandon Ave ,(773) 535-6425,94.8,0,NULL,NULL,NULL,288,NULL,1.50E+14,1193092.436,1846336.546,41.73330693,-87.5681905,48,CALUMET HEIGHTS,7,4,"(41.73330693, -87.5681905)"
609981,Phobe Apperson Hearst Elementary School,ES,4640 S Lamon Ave ,(773) 535-2376,92.1,25.5,NULL,NULL,NULL,364,NULL,1.50E+14,1144438.111,1873241.766,41.80818821,-87.74576315,56,GARFIELD RIDGE,23,8,"(41.80818821, -87.74576315)"
609791,Perkins Bass Elementary School,ES,1140 W 66th St ,(773) 535-3275,92.1,28.9,NULL,NULL,NULL,369,NULL,1.50E+14,1169677.933,1861068.943,41.77427377,-87.65354234,68,ENGLEWOOD,17,7,"(41.77427377, -87.65354234)"
609766,Jacqueline B Vaughn Occupational High School,HS,4355 N Linder Ave ,(773) 534-3600,87.6,3.7,55.6,65.3,NULL,203,NULL,1.50E+14,1138928.091,1928655.205,41.96035141,-87.76462602,15,PORTAGE PARK,38,16,"(41.96035141, -87.76462602)"
609897,Charles W Earle Elementary School,ES,6121 S Hermitage Ave ,(773) 535-9130,93.8,16.9,NULL,NULL,NULL,331,NULL,1.50E+14,1165772.423,1863964.038,41.78230211,-87.66777712,67,WEST ENGLEWOOD,15,7,"(41.78230211, -87.66777712)"
609800,Frank I Bennett Elementary School,ES,10115 S Prairie Ave ,(773) 535-5460,92.5,6.5,NULL,NULL,NULL,504,NULL,1.50E+14,1179742.916,1837880.076,41.71041656,-87.61735342,49,ROSELAND,9,5,"(41.71041656, -87.61735342)"
609836,Arthur E Canty Elementary School,ES,3740 N Panama Ave ,(773) 534-1238,96.1,2.3,NULL,NULL,NULL,784,NULL,1.50E+14,1121355.698,1924041.412,41.94799245,-87.8293319,17,DUNNING,36,16,"(41.94799245, -87.8293319)"
609943,Samuel Gompers Fine Arts Options Elementary School,ES,12302 S State St ,(773) 535-5475,93.6,54.2,NULL,NULL,NULL,285,NULL,1.50E+14,1178435.326,1823353.395,41.67058298,-87.62258098,53,WEST PULLMAN,9,5,"(41.67058298, -87.62258098)"
609976,Stephen K Hayt Elementary School,ES,1518 W Granville Ave ,(773) 534-2040,95.6,55.6,NULL,NULL,NULL,1000,NULL,1.50E+14,1164969.802,1941312.085,41.99456814,-87.6685227,77,EDGEWATER,40,24,"(41.99456814, -87.6685227)"
609988,Patrick Henry Elementary School,ES,4250 N Saint Louis Ave ,(773) 534-5060,95.1,4.3,NULL,NULL,NULL,650,NULL,1.50E+14,1152247.412,1928240.998,41.95896179,-87.71566829,16,IRVING PARK,33,17,"(41.95896179, -87.71566829)"
610215,Francisco I Madero Middle School,MS,3202 W 28th St ,(773) 535-4466,95.1,7.1,NULL,NULL,NULL,314,NULL,1.50E+14,1155440.547,1885270.824,41.84098398,-87.70508585,30,SOUTH LAWNDALE,22,10,"(41.84098398, -87.70508585)"
609755,Whitney M Young Magnet High School,HS,211 S Laflin St ,(773) 534-7500,94.6,1.2,89,93.9,88.3,2166,96.7,1.50E+14,1166475.742,1899058.627,41.87859028,-87.66419634,28,NEAR WEST SIDE,2,12,"(41.87859028, -87.66419634)"
610153,William H Ryder Math & Science Specialty Elementary School,ES,8716 S Wallace St ,(773) 535-3843,93,22.5,NULL,NULL,NULL,302,NULL,1.50E+14,1173792.13,1846923.856,41.73536767,-87.63887904,71,AUBURN GRESHAM,21,22,"(41.73536767, -87.63887904)"
609935,Matthew Gallistel Elementary Language Academy,ES,10347 S Ewing Ave ,(773) 535-6540,95.1,5.9,NULL,NULL,NULL,1408,NULL,1.50E+14,1202203.353,1836767.747,41.70682232,-87.53513861,52,EAST SIDE,10,4,"(41.70682232, -87.53513861)"
610217,James Ward Elementary School,ES,2701 S Shields Ave ,(773) 534-9050,97.8,1.3,NULL,NULL,NULL,492,NULL,1.50E+14,1174442.789,1886499.005,41.84395162,-87.63531815,34,ARMOUR SQUARE,11,9,"(41.84395162, -87.63531815)"
610068,Hanson Park Elementary School,ES,5411 W Fullerton Ave ,(773) 534-3100,95,24.4,NULL,NULL,NULL,1499,NULL,1.50E+14,1139861.158,1915387.949,41.92392771,-87.76152094,19,BELMONT CRAGIN,37,25,"(41.92392771, -87.76152094)"
610357,Spry Community Links High School,HS,2400 S Marshall Blvd ,(773) 534-1997,95.6,9.7,35,73.7,65.2,205,92.8,1.50E+14,1157044.911,1887895.675,41.84815451,-87.69912725,30,SOUTH LAWNDALE,12,10,"(41.84815451, -87.69912725)"
609751,Dr  Martin Luther King  Jr  College Prep High School,HS,4445 S Drexel Blvd ,(773) 535-1180,92.9,4.4,31.9,75.4,85.1,915,91.1,1.50E+14,1183114.175,1875544.787,41.81369471,-87.60383761,39,KENWOOD,4,2,"(41.81369471, -87.60383761)"
610363,Walt Disney Magnet Elementary School,ES,4140 N Marine Dr ,(773) 534-5840,96.4,7.7,NULL,NULL,NULL,1651,NULL,1.50E+14,1171170.774,1927599.86,41.95680712,-87.6461175,3,UPTOWN,46,19,"(41.95680712, -87.6461175)"
610156,Louis Armstrong Math & Science Elementary School,ES,5345 W Congress Pkwy ,(773) 534-6365,92.6,83.4,NULL,NULL,NULL,93,NULL,1.50E+14,1140614.251,1897119.257,41.87378243,-87.75920297,25,AUSTIN,29,15,"(41.87378243, -87.75920297)"
610246,Edward Beasley Elementary Magnet Academic Center,ES,5255 S State St ,(773) 535-1230,95,10.3,NULL,NULL,NULL,1365,NULL,1.50E+14,1177212.26,1869948.081,41.79847228,-87.62565509,40,WASHINGTON PARK,3,2,"(41.79847228, -87.62565509)"
610544,Mariano Azuela Elementary School,ES,4707 W Marquette Rd ,(773) 535-7395,95.5,19.7,NULL,NULL,NULL,873,NULL,1.50E+14,1146123.64,1859720.388,41.77105158,-87.73992325,65,WEST LAWN,13,8,"(41.77105158, -87.73992325)"
609678,William Jones College Preparatory High School,HS,606 S State St ,(773) 534-8600,93.8,4.5,83.3,90.1,86.9,871,92.8,1.50E+14,1176412.354,1897618.088,41.87441898,-87.62775497,32,LOOP,2,1,"(41.87441898, -87.62775497)"
610045,Robert H Lawrence Elementary School,ES,9928 S Crandon Ave ,(773) 535-6320,90.7,14,NULL,NULL,NULL,371,NULL,1.50E+14,1193433.052,1839450.176,41.71440176,-87.56716721,51,SOUTH DEERING,7,4,"(41.71440176, -87.56716721)"
609845,George Washington Carver Primary School,ES,901 E 133rd Pl ,(773) 535-5674,90.9,15.6,NULL,NULL,NULL,546,NULL,1.50E+14,1184786.467,1817244.896,41.65367428,-87.59952683,54,RIVERDALE,9,5,"(41.65367428, -87.59952683)"
609916,Enrico Fermi Elementary School,ES,1415 E 70th St ,(773) 535-0540,89.9,101.2,NULL,NULL,NULL,238,NULL,1.50E+14,1186924.786,1858826.102,41.76772772,-87.59039017,43,SOUTH SHORE,5,3,"(41.76772772, -87.59039017)"
610290,Benjamin E Mays Elementary Academy,ES,838 W Marquette Rd ,(773) 535-3892,95.5,0.3,NULL,NULL,NULL,301,NULL,1.50E+14,1171705.53,1860460.828,41.77256081,-87.64612737,68,ENGLEWOOD,16,7,"(41.77256081, -87.64612737)"
610032,Wendell E Green Elementary School,ES,1150 W 96th St ,(773) 535-2575,93.9,20.1,NULL,NULL,NULL,254,NULL,1.50E+14,1170124.549,1841046.411,41.71931953,-87.65248591,73,WASHINGTON HEIGHTS,21,22,"(41.71931953, -87.65248591)"
610097,William P Nixon Elementary School,ES,2121 N Keeler Ave ,(773) 534-4375,95.6,3.5,NULL,NULL,NULL,1061,NULL,1.50E+14,1148073.735,1913864.663,41.91959342,-87.73138368,20,HERMOSA,30,25,"(41.91959342, -87.73138368)"
609839,Carroll-Rosenwald Specialty Elementary School,ES,2929 W 83rd St ,(773) 535-9414,94.8,27.8,NULL,NULL,NULL,537,NULL,1.50E+14,1158181.605,1849398.28,41.74248931,-87.696003,70,ASHBURN,18,8,"(41.74248931, -87.696003)"
609775,John P Altgeld Elementary School,ES,1340 W 71st St ,(773) 535-3250,91.9,32.9,NULL,NULL,NULL,527,NULL,1.50E+14,1168430.269,1857717.233,41.76510322,-87.6582125,67,WEST ENGLEWOOD,17,7,"(41.76510322, -87.6582125)"
610334,Al Raby High School,HS,3545 W Fulton Blvd ,(773) 534-6755,80.3,14,13.5,72.2,64.2,551,74.3,1.50E+14,1152512.295,1901720.85,41.886183,-87.71539705,27,EAST GARFIELD PARK,28,11,"(41.886183, -87.71539705)"
609975,John Hay Elementary Community Academy,ES,1018 N Laramie Ave ,(773) 534-6000,92.9,30.8,NULL,NULL,NULL,554,NULL,1.50E+14,1141465.048,1906381.947,41.89918473,-87.75585034,25,AUSTIN,37,15,"(41.89918473, -87.75585034)"
609918,Eugene Field Elementary School,ES,7019 N Ashland Ave ,(773) 534-2030,96.8,10,NULL,NULL,NULL,375,NULL,1.50E+14,1164539.561,1946810.338,42.00966462,-87.66994862,1,ROGERS PARK,49,24,"(42.00966462, -87.66994862)"
610201,Ole A Thorp Elementary Scholastic Academy,ES,6024 W Warwick Ave ,(773) 534-3640,96.4,25.8,NULL,NULL,NULL,834,NULL,1.50E+14,1135416.207,1924349.243,41.94859865,-87.77764028,17,DUNNING,38,16,"(41.94859865, -87.77764028)"
609873,Crown Community Academy of Fine Arts Center Elementary School,ES,2128 S Saint Louis Ave ,(773) 534-1680,92.5,100.5,NULL,NULL,NULL,298,NULL,1.50E+14,1153387.649,1889511.387,41.85266155,-87.7125068,29,NORTH LAWNDALE,24,10,"(41.85266155, -87.7125068)"
610520,LaSalle II Magnet Elementary School,ES,1148 N Honore St ,(773) 534-0490,95.1,5.6,NULL,NULL,NULL,609,NULL,1.50E+14,1163810.597,1907900.166,41.90290876,-87.67373263,24,WEST TOWN,1,13,"(41.90290876, -87.67373263)"
609762,Percy L Julian High School,HS,10330 S Elizabeth St ,(773) 535-5170,74.6,33.4,8.3,60.3,54.9,1226,65.3,1.50E+14,1169808.363,1836139.004,41.70585971,-87.65378585,73,WASHINGTON HEIGHTS,21,22,"(41.70585971, -87.65378585)"
610173,Jesse Sherwood Elementary School,ES,245 W 57th St ,(773) 535-0829,92,3.9,NULL,NULL,NULL,355,NULL,1.50E+14,1175428.391,1867127.635,41.7907728,-87.6322812,68,ENGLEWOOD,20,7,"(41.7907728, -87.6322812)"
610015,Joseph Jungman Elementary School,ES,1746 S Miller St ,(773) 534-7375,96.4,5.3,NULL,NULL,NULL,286,NULL,1.50E+14,1169764.005,1891617.595,41.85810053,-87.65233933,31,LOWER WEST SIDE,25,12,"(41.85810053, -87.65233933)"
610150,Betsy Ross Elementary School,ES,6059 S Wabash Ave ,(773) 535-0650,88.9,64.1,NULL,NULL,NULL,350,NULL,1.50E+14,1177801.979,1864618.42,41.78383382,-87.62365383,40,WASHINGTON PARK,20,3,"(41.78383382, -87.62365383)"
610005,Charles Evans Hughes Elementary School,ES,4247 W 15th St ,(773) 534-1762,94.4,0,NULL,NULL,NULL,315,NULL,1.50E+14,1148118.259,1892326.805,41.86049033,-87.73177486,29,NORTH LAWNDALE,24,10,"(41.86049033, -87.73177486)"
610202,George W Tilton Elementary School,ES,223 N Keeler Ave ,(773) 534-6746,91.4,65.5,NULL,NULL,NULL,321,NULL,1.50E+14,1148397.097,1900931.417,41.88409703,-87.73052949,26,WEST GARFIELD PARK,28,11,"(41.88409703, -87.73052949)"
610163,Frederick Stock Elementary School,ES,7507 W Birchwood Ave ,(773) 534-1215,72.4,0,NULL,NULL,NULL,260,NULL,1.50E+14,1125318.193,1949163.026,42.0168639,-87.81420664,9,EDISON PARK,41,16,"(42.0168639, -87.81420664)"
610072,Garrett A Morgan Elementary School,ES,8407 S Kerfoot Ave ,(773) 535-3366,92,10,NULL,NULL,NULL,237,NULL,1.50E+14,1173449.365,1849063.053,41.74124549,-87.64007166,71,AUBURN GRESHAM,21,6,"(41.74124549, -87.64007166)"
610024,Lazaro Cardenas Elementary School,ES,2345 S Millard Ave ,(773) 534-1465,96.3,3.2,NULL,NULL,NULL,654,NULL,1.50E+14,1152451.967,1887990.693,41.8485071,-87.71598119,30,SOUTH LAWNDALE,22,10,"(41.8485071, -87.71598119)"
610135,Portage Park Elementary School,ES,5330 W Berteau Ave ,(773) 534-3576,94.2,3.7,NULL,NULL,NULL,1139,NULL,1.50E+14,1139920.815,1927445.996,41.9570151,-87.76100593,15,PORTAGE PARK,38,16,"(41.9570151, -87.76100593)"
610098,Alfred Nobel Elementary School,ES,4127 W Hirsch St ,(773) 534-4365,94.6,24.8,NULL,NULL,NULL,801,NULL,1.50E+14,1148503.002,1908960.619,41.90612797,-87.72993324,23,HUMBOLDT PARK,37,25,"(41.90612797, -87.72993324)"
609888,Mary Mapes Dodge Elementary Renaissance Academy,ES,2651 W Washington Blvd ,(773) 534-6640,94.4,12.7,NULL,NULL,NULL,434,NULL,1.50E+14,1158615.705,1900540.306,41.88282068,-87.6930162,27,EAST GARFIELD PARK,2,13,"(41.88282068, -87.6930162)"
609987,Thomas A Hendricks Elementary Community Academy,ES,4316 S Princeton Ave ,(773) 535-1696,91.2,61.8,NULL,NULL,NULL,307,NULL,1.50E+14,1174966.903,1876241.753,41.81579314,-87.63370133,37,FULLER PARK,3,9,"(41.81579314, -87.63370133)"
610029,Rodolfo Lozano Bilingual & International Center Elementary School,ES,1501 N Greenview Ave ,(773) 534-4750,94.8,0.9,NULL,NULL,NULL,319,NULL,1.50E+14,1166155.136,1910106.654,41.90891372,-87.66505758,24,WEST TOWN,32,14,"(41.90891372, -87.66505758)"
610012,Edward Jenner Elementary Academy of the Arts,ES,1119 N Cleveland Ave ,(773) 534-8440,88.9,16,NULL,NULL,NULL,314,NULL,1.50E+14,1172718.668,1907660.339,41.90205805,-87.64101894,8,NEAR NORTH SIDE,27,18,"(41.90205805, -87.64101894)"
610325,Logandale Middle School,MS,3212 W George St ,(773) 534-5350,95.1,5.1,NULL,NULL,NULL,941,NULL,1.50E+14,1154387.612,1919159.019,41.9339976,-87.70804359,21,AVONDALE,35,14,"(41.9339976, -87.70804359)"
610250,Rueben Salazar Elementary Bilingual Center,ES,160 W Wendell St ,(773) 534-8310,95.1,44.6,NULL,NULL,NULL,444,NULL,1.50E+14,1174702.288,1907452.819,41.90144445,-87.63373912,8,NEAR NORTH SIDE,43,18,"(41.90144445, -87.63373912)"
610081,Mark Sheridan Elementary Math & Science Academy,ES,533 W 27th St ,(773) 534-9120,96.8,1.3,NULL,NULL,NULL,535,NULL,1.50E+14,1172807.818,1886639.308,41.84437293,-87.64131399,60,BRIDGEPORT,11,9,"(41.84437293, -87.64131399)"
610023,William H King Elementary School,ES,740 S Campbell Ave ,(773) 534-7898,92.4,17.7,NULL,NULL,NULL,264,NULL,1.50E+14,1159805.717,1896555.693,41.87186209,-87.68875632,28,NEAR WEST SIDE,2,11,"(41.87186209, -87.68875632)"
610161,Arna Wendell Bontemps Elementary School,ES,1241 W 58th St ,(773) 535-9175,94.2,31.2,NULL,NULL,NULL,345,NULL,1.50E+14,1168872.421,1866273.444,41.78857298,-87.65634499,67,WEST ENGLEWOOD,16,7,"(41.78857298, -87.65634499)"
609807,Lionel Hampton Fine & Performing Arts Elementary School,ES,3434 W 77th St ,(773) 535-4030,95,94.9,NULL,NULL,NULL,658,NULL,1.50E+14,1154672.983,1853379.243,41.75348432,-87.70875287,70,ASHBURN,18,8,"(41.75348432, -87.70875287)"
610541,Federico Garcia Lorca Elementary School,ES,3231 N Springfield Ave ,(773) 534-0950,96.8,43.8,NULL,NULL,NULL,860,NULL,1.50E+14,1149828.059,1921320.477,41.94001885,-87.72474354,21,AVONDALE,30,17,"(41.94001885, -87.72474354)"
609947,Alexander Graham Elementary School,ES,4436 S Union Ave ,(773) 535-1308,92.5,27.4,NULL,NULL,NULL,476,NULL,1.50E+14,1172335.702,1875308.997,41.81329195,-87.64338051,61,NEW CITY,11,9,"(41.81329195, -87.64338051)"
609996,Charles N Holden Elementary School,ES,1104 W 31st St ,(773) 535-7200,94.9,4.7,NULL,NULL,NULL,600,NULL,1.50E+14,1169423.887,1884309.813,41.83805473,-87.65380002,60,BRIDGEPORT,11,9,"(41.83805473, -87.65380002)"
610245,Frederick A Douglass Academy High School,HS,543 N Waller Ave ,(773) 534-6176,79.2,28,5.1,52.8,39.5,354,77.1,1.50E+14,1138278.715,1903151.591,41.89037849,-87.76763207,25,AUSTIN,29,15,"(41.89037849, -87.76763207)"
610075,Moses Montefiore Special Elementary School,ES,1310 S Ashland Ave ,(773) 534-7825,80.4,251.6,NULL,NULL,NULL,21,NULL,1.50E+14,1165892.869,1893999.307,41.86471954,-87.66648084,28,NEAR WEST SIDE,2,12,"(41.86471954, -87.66648084)"
610218,Joseph Warren Elementary School,ES,9239 S Jeffery Ave ,(773) 535-6625,95,21.6,NULL,NULL,NULL,328,NULL,1.50E+14,1191168.455,1843939.067,41.72677474,-87.5753162,48,CALUMET HEIGHTS,8,4,"(41.72677474, -87.5753162)"
609769,Ray Graham Training Center High School,HS,2347 S Wabash Ave ,(773) 534-9257,86.3,3.7,18.8,10.3,NULL,137,NULL,1.50E+14,1177161.058,1888615.131,41.84969736,-87.6252787,33,NEAR SOUTH SIDE,2,1,"(41.84969736, -87.6252787)"
609973,Emiliano Zapata Elementary Academy,ES,2728 S Kostner Ave ,(773) 534-1390,96.6,2.8,NULL,NULL,NULL,988,NULL,1.50E+14,1147465.325,1885362.468,41.84139181,-87.73434997,30,SOUTH LAWNDALE,22,10,"(41.84139181, -87.73434997)"
609921,Telpochcalli Elementary School,ES,2832 W 24th Blvd ,(773) 534-1402,95.4,2.7,NULL,NULL,NULL,285,NULL,1.50E+14,1157725.352,1887836.509,41.84797834,-87.6966316,30,SOUTH LAWNDALE,12,10,"(41.84797834, -87.6966316)"
609786,Avalon Park Elementary School,ES,8045 S Kenwood Ave ,(773) 535-6615,92.1,52.1,NULL,NULL,NULL,398,NULL,1.50E+14,1186651.081,1851731.65,41.74826636,-87.59161761,45,AVALON PARK,8,4,"(41.74826636, -87.59161761)"
610107,James Otis Elementary School,ES,525 N Armour St ,(773) 534-7665,95.5,3.2,NULL,NULL,NULL,491,NULL,1.50E+14,1166113.411,1903868.626,41.89179703,-87.66538928,24,WEST TOWN,27,13,"(41.89179703, -87.66538928)"
610091,Ronald Brown Elementary Community Academy,ES,12607 S Union Ave ,(773) 535-5385,93.8,35.6,NULL,NULL,NULL,283,NULL,1.50E+14,1173988.072,1821226.195,41.66484509,-87.63892027,53,WEST PULLMAN,9,5,"(41.66484509, -87.63892027)"
610273,Ignance Paderewski Elementary Learning Academy,ES,2221 S Lawndale Ave ,(773) 534-1821,92.1,20.9,NULL,NULL,NULL,130,NULL,1.50E+14,1152095.48,1888877.695,41.85094816,-87.71726618,30,SOUTH LAWNDALE,22,10,"(41.85094816, -87.71726618)"
610102,Richard J Oglesby Elementary School,ES,7646 S Green St ,(773) 535-3060,94.4,25.4,NULL,NULL,NULL,402,NULL,1.50E+14,1171926.914,1853950.536,41.75469091,-87.64550666,71,AUBURN GRESHAM,17,6,"(41.75469091, -87.64550666)"
610380,Daniel Hale Williams Prep School of Medicine,HS,4934 S Wabash Ave ,(773) 535-1120,91.3,5.4,32.7,NULL,NULL,324,90.1,1.50E+14,1177513.255,1872170.444,41.80456384,-87.62448408,38,GRAND BOULEVARD,3,2,"(41.80456384, -87.62448408)"
610152,Martha Ruggles Elementary School,ES,7831 S Prairie Ave ,(773) 535-3085,93.9,30.9,NULL,NULL,NULL,417,NULL,1.50E+14,1179432.46,1853011.922,41.75194729,-87.61802983,69,GREATER GRAND CROSSING,6,6,"(41.75194729, -87.61802983)"
609949,William P Gray Elementary School,ES,3730 N Laramie Ave ,(773) 534-3520,95.6,5.9,NULL,NULL,NULL,1345,NULL,1.50E+14,1140988.981,1924452.515,41.94878107,-87.75715297,15,PORTAGE PARK,38,16,"(41.94878107, -87.75715297)"
610364,William E B Dubois Elementary School,ES,330 E 133rd St ,(773) 535-5582,93.3,48.5,NULL,NULL,NULL,184,NULL,1.50E+14,1180737.575,1817242.153,41.65376037,-87.61434156,54,RIVERDALE,9,5,"(41.65376037, -87.61434156)"
609705,Christian Fenger Academy High School,HS,11220 S Wallace St ,(773) 535-5430,74.4,49.8,11.3,34.8,36.7,688,68.2,1.50E+14,1174272.711,1830372.91,41.68993885,-87.63760833,49,ROSELAND,34,22,"(41.68993885, -87.63760833)"
610160,Songhai Elementary Learning Institute,ES,11725 S Perry Ave ,(773) 535-5547,89.5,84.7,NULL,NULL,NULL,352,NULL,1.50E+14,1177727.869,1827095.66,41.68086831,-87.62505762,53,WEST PULLMAN,34,5,"(41.68086831, -87.62505762)"
610383,Greater Lawndale High School For Social Justice,HS,3120 S Kostner Ave ,(773) 535-4300,87.5,16.4,14.9,67,57.4,371,87.4,1.50E+14,1147521.302,1883405.128,41.83601953,-87.73419465,30,SOUTH LAWNDALE,22,10,"(41.83601953, -87.73419465)"
609740,Wells Community Academy High School,HS,936 N Ashland Ave ,(773) 534-7010,74.1,16.9,7.2,59.3,43.8,633,61.3,1.50E+14,1165512.916,1906490.72,41.89900506,-87.66751989,24,WEST TOWN,1,13,"(41.89900506, -87.66751989)"
610396,Tarkington School of Excellence Elementary School,ES,3330 W 71st St ,(773) 535-4700,95.9,10.5,NULL,NULL,NULL,1070,NULL,1.50E+14,1155280.2,1857374.137,41.76443483,-87.70642093,66,CHICAGO LAWN,18,8,"(41.76443483, -87.70642093)"
610040,Henry D Lloyd Elementary School,ES,2103 N Lamon Ave ,(773) 534-3070,96.2,0,NULL,NULL,NULL,1334,NULL,1.50E+14,1143423.139,1913554.359,41.91883022,-87.74847861,19,BELMONT CRAGIN,31,25,"(41.91883022, -87.74847861)"
609704,David G Farragut Career Academy High School,HS,2345 S Christiana Ave ,(773) 534-1300,86.1,18.6,13.4,43.2,31.3,1456,68.6,1.50E+14,1154443.895,1888031.41,41.8485793,-87.70866954,30,SOUTH LAWNDALE,22,10,"(41.8485793, -87.70866954)"
610127,Mary Gage Peterson Elementary School,ES,5510 N Christiana Ave ,(773) 534-5070,95.5,10.3,NULL,NULL,NULL,860,NULL,1.50E+14,1153016.828,1936489.312,41.98158041,-87.71261988,13,NORTH PARK,40,17,"(41.98158041, -87.71261988)"
610095,Walter L Newberry Math & Science Academy Elementary School,ES,700 W Willow St ,(773) 534-8000,95.1,2.1,NULL,NULL,NULL,558,NULL,1.50E+14,1171323.787,1911991.711,41.91397435,-87.64601501,7,LINCOLN PARK,43,18,"(41.91397435, -87.64601501)"
610000,Julia Ward Howe Elementary School of Excellence,ES,720 N Lorel Ave ,(773) 534-6060,96,7.7,NULL,NULL,NULL,576,NULL,1.50E+14,1140502.548,1904349.511,41.89362521,-87.75943557,25,AUSTIN,37,15,"(41.89362521, -87.75943557)"
400018,Austin Business and Entrepreneurship Academy High School,HS,231 N Pine Ave ,(773) 534-6316,76,12.4,12.2,65.6,51.3,316,NULL,1.50E+14,1139494.763,1901274.258,41.88520477,-87.76321191,25,AUSTIN,28,15,"(41.88520477, -87.76321191)"
609865,Jordan Elementary Community School,ES,7414 N Wolcott Ave ,(773) 534-2220,95.6,16.4,NULL,NULL,NULL,753,NULL,1.50E+14,1162385.224,1949501.716,42.01709536,-87.67779928,1,ROGERS PARK,49,24,"(42.01709536, -87.67779928)"
609869,Anna R. Langford Community Academy,ES,6010 S Throop St ,(773) 535-9180,91.8,29,NULL,NULL,NULL,339,NULL,1.50E+14,1168649.029,1864844.463,41.78465652,-87.6572053,67,WEST ENGLEWOOD,16,7,"(41.78465652, -87.6572053)"
610093,Jane A Neil Elementary School,ES,8555 S Michigan Ave ,(773) 535-3000,88.9,5,NULL,NULL,NULL,306,NULL,1.50E+14,1178690.672,1848082.986,41.7384386,-87.62089767,44,CHATHAM,6,6,"(41.7384386, -87.62089767)"
610258,Florence B Price Elementary School,ES,4351 S Drexel Blvd ,(773) 535-1300,90,156.6,NULL,NULL,NULL,112,NULL,1.50E+14,1183099.293,1876145.197,41.81534262,-87.6038735,39,KENWOOD,4,2,"(41.81534262, -87.6038735)"
610197,Mancel Talcott Elementary School,ES,1840 W Ohio St ,(773) 534-7130,95.8,3.2,NULL,NULL,NULL,580,NULL,1.50E+14,1163847.473,1904082.62,41.89243235,-87.67370499,24,WEST TOWN,1,13,"(41.89243235, -87.67370499)"
609806,Myra Bradwell Communications Arts & Sciences Elementary School,ES,7736 S Burnham Ave ,(773) 535-6600,92.1,75.9,NULL,NULL,NULL,775,NULL,1.50E+14,1196028.811,1854039.898,41.7543734,-87.55717881,43,SOUTH SHORE,7,4,"(41.7543734, -87.55717881)"
610196,George B Swift Elementary Specialty School,ES,5900 N Winthrop Ave ,(773) 534-2695,96.3,6,NULL,NULL,NULL,709,NULL,1.50E+14,1167755.176,1939362.027,41.98915734,-87.65833342,77,EDGEWATER,48,20,"(41.98915734, -87.65833342)"
610317,Brighton Park Elementary School,ES,3825 S Washtenaw Ave ,(773) 535-7237,96.3,2.6,NULL,NULL,NULL,691,NULL,1.50E+14,1159041.661,1879076.777,41.82391375,-87.69204069,58,BRIGHTON PARK,12,9,"(41.82391375, -87.69204069)"
610188,Dunne Technology Academy,ES,10845 S Union Ave ,(773) 535-5517,94.6,22.8,NULL,NULL,NULL,310,NULL,1.50E+14,1173617.217,1832764.286,41.69651565,-87.63993763,49,ROSELAND,34,22,"(41.69651565, -87.63993763)"
609792,Newton Bateman Elementary School,ES,4220 N Richmond St ,(773) 534-5055,96.2,0.2,NULL,NULL,NULL,1015,NULL,1.50E+14,1155915.849,1928001.212,41.95823045,-87.70218806,16,IRVING PARK,33,17,"(41.95823045, -87.70218806)"
610144,Frank W Reilly Elementary School,ES,3650 W School St ,(773) 534-5250,97,8.7,NULL,NULL,NULL,1195,NULL,1.50E+14,1151243.469,1921732.413,41.94112155,-87.71953058,21,AVONDALE,35,17,"(41.94112155, -87.71953058)"
610235,Ella Flagg Young Elementary School,ES,1434 N Parkside Ave ,(773) 534-6200,94.3,3,NULL,NULL,NULL,1111,NULL,1.50E+14,1138362.536,1909130.405,41.90678358,-87.76717934,25,AUSTIN,29,25,"(41.90678358, -87.76717934)"
610329,Orozco Fine Arts & Sciences Elementary School,ES,1940 W 18th St ,(773) 534-7215,97.6,1.4,NULL,NULL,NULL,636,NULL,1.50E+14,1163539.274,1891453.147,41.85778248,-87.67519253,31,LOWER WEST SIDE,25,12,"(41.85778248, -87.67519253)"
610320,Ana Roque de Duprey Elementary School,ES,2620 W Hirsch St ,(773) 534-4230,95.4,77.5,NULL,NULL,NULL,114,NULL,1.50E+14,1158554.232,1909250.021,41.90672216,-87.69300325,24,WEST TOWN,26,14,"(41.90672216, -87.69300325)"
610524,Alcott High School for the Humanities,HS,2957 N Hoyne Ave ,(773) 534-5979,92.7,7.1,NULL,NULL,NULL,232,87.6,1.50E+14,1161870.556,1919857.44,41.93576106,-87.68052441,5,NORTH CENTER,1,19,"(41.93576106, -87.68052441)"
609875,Charles R Darwin Elementary School,ES,3116 W Belden Ave ,(773) 534-4110,95.6,33.8,NULL,NULL,NULL,622,NULL,1.50E+14,1155126.902,1915284.203,41.92334998,-87.70543099,22,LOGAN SQUARE,26,14,"(41.92334998, -87.70543099)"
609710,John M Harlan Community Academy High School,HS,9652 S Michigan Ave ,(773) 535-5400,81.2,21.6,5.9,47.9,55.7,1245,64.4,1.50E+14,1178815.804,1840781.935,41.71840075,-87.62066069,49,ROSELAND,6,5,"(41.71840075, -87.62066069)"
609901,Edgebrook Elementary School,ES,6525 N Hiawatha Ave ,(773) 534-1194,96.9,3.4,NULL,NULL,NULL,468,NULL,1.50E+14,1139595.896,1942911.685,41.99946016,-87.7618211,12,FOREST GLEN,41,16,"(41.99946016, -87.7618211)"
609827,Burnside Elementary Scholastic Academy,ES,650 E 91st Pl ,(773) 535-3300,94.9,8.9,NULL,NULL,NULL,766,NULL,1.50E+14,1182385.651,1844494.844,41.72850759,-87.60747108,44,CHATHAM,6,6,"(41.72850759, -87.60747108)"
609832,Michael M Byrne Elementary School,ES,5329 S Oak Park Ave ,(773) 535-2170,94.6,51.8,NULL,NULL,NULL,705,NULL,1.50E+14,1131997.021,1868365.169,41.79503029,-87.79150778,56,GARFIELD RIDGE,23,8,"(41.79503029, -87.79150778)"
610532,Irene C. Hernandez Middle School for the Advancement of Science,MS,3510 W 55th St ,(773) 535-8850,95.5,14.8,NULL,NULL,NULL,970,NULL,1.50E+14,1153845.758,1867957.685,41.79350627,-87.71139803,63,GAGE PARK,14,8,"(41.79350627, -87.71139803)"
609983,James Hedges Elementary School,ES,4747 S Winchester Ave ,(773) 535-7360,95.4,48.8,NULL,NULL,NULL,845,NULL,1.50E+14,1164199.04,1873001.047,41.80713406,-87.67329121,61,NEW CITY,20,9,"(41.80713406, -87.67329121)"
610145,Peter A Reinberg Elementary School,ES,3425 N Major Ave ,(773) 534-3465,95.8,8.2,NULL,NULL,NULL,832,NULL,1.50E+14,1137794.92,1922326.021,41.94300407,-87.76894541,15,PORTAGE PARK,38,16,"(41.94300407, -87.76894541)"
609895,Turner-Drew Elementary Language Academy,ES,9300 S Princeton Ave ,(773) 535-5720,95.8,24,NULL,NULL,NULL,373,NULL,1.50E+14,1176188.712,1843386.932,41.72560849,-87.6302048,49,ROSELAND,21,6,"(41.72560849, -87.6302048)"
609726,Gwendolyn Brooks College Preparatory Academy High School,HS,250 E 111th St ,(773) 535-9930,87.1,0.1,51.1,88.1,87.9,783,90.3,1.50E+14,1180061.781,1831459.213,41.69278956,-87.61638144,49,ROSELAND,9,5,"(41.69278956, -87.61638144)"
610283,Simon Guggenheim Elementary School,ES,7141 S Morgan St ,(773) 535-3587,90.9,29.5,NULL,NULL,NULL,291,NULL,1.50E+14,1170922.983,1857302.22,41.76391032,-87.64908807,68,ENGLEWOOD,17,7,"(41.76391032, -87.64908807)"
609893,John C Dore Elementary School,ES,6108 S Natoma Ave ,(773) 535-2080,95.6,10.8,NULL,NULL,NULL,590,NULL,1.50E+14,1133084.3,1863232.77,41.78092716,-87.78764009,64,CLEARING,23,8,"(41.78092716, -87.78764009)"
610018,Miriam G Canter Middle School,MS,4959 S Blackstone Ave ,(773) 535-1410,91.4,3.4,NULL,NULL,NULL,222,NULL,1.50E+14,1186808.191,1872169.101,41.80434474,-87.59039494,39,KENWOOD,4,2,"(41.80434474, -87.59039494)"
610108,Luke O'Toole Elementary School,ES,6550 S Seeley Ave ,(773) 535-9040,89.2,26.7,NULL,NULL,NULL,511,NULL,1.50E+14,1163788.552,1860992.429,41.77418952,-87.67513395,67,WEST ENGLEWOOD,15,7,"(41.77418952, -87.67513395)"
610167,William H Seward Communication Arts Academy Elementary School,ES,4600 S Hermitage Ave ,(773) 535-4890,95.7,14.4,NULL,NULL,NULL,896,NULL,1.50E+14,1165412.465,1874162.777,41.81029632,-87.66880778,61,NEW CITY,20,9,"(41.81029632, -87.66880778)"
610101,William B Ogden Elementary School,ES,24 W Walton St ,(773) 534-8110,95.1,4.5,NULL,NULL,NULL,722,NULL,1.50E+14,1175917.983,1906947.859,41.90003152,-87.62928901,8,NEAR NORTH SIDE,42,18,"(41.90003152, -87.62928901)"
610340,Chicago Academy High School,HS,3400 N Austin Ave ,(773) 534-0146,93.1,6.3,23.9,70.1,64.2,502,80.6,1.50E+14,1135740.091,1922002.941,41.94215439,-87.77650575,17,DUNNING,38,16,"(41.94215439, -87.77650575)"
609985,Helen M Hefferan Elementary School,ES,4409 W Wilcox St ,(773) 534-6192,93.8,13.4,NULL,NULL,NULL,259,NULL,1.50E+14,1146965.713,1898931.63,41.87863685,-87.73583687,26,WEST GARFIELD PARK,28,11,"(41.87863685, -87.73583687)"
610126,John J Pershing Elementary Humanities Magnet,ES,3113 S Rhodes Ave ,(773) 534-9272,95.5,19.2,NULL,NULL,NULL,258,NULL,1.50E+14,1180449.204,1884392.316,41.83803465,-87.61334083,35,DOUGLAS,4,2,"(41.83803465, -87.61334083)"
609874,Everett McKinley Dirksen Elementary School,ES,8601 W Foster Ave ,(773) 534-1090,95.9,2.7,NULL,NULL,NULL,786,NULL,1.50E+14,1118113.731,1933386.151,41.97368728,-87.84105162,76,OHARE,41,16,"(41.97368728, -87.84105162)"
609937,John W Garvy Elementary School,ES,5225 N Oak Park Ave ,(773) 534-1185,95.3,10.2,NULL,NULL,NULL,720,NULL,1.50E+14,1130304.414,1934430.694,41.97635262,-87.79619832,10,NORWOOD PARK,41,16,"(41.97635262, -87.79619832)"
609903,Richard Edwards Elementary School,ES,4815 S Karlov Ave ,(773) 535-4875,95.3,10.3,NULL,NULL,NULL,1503,NULL,1.50E+14,1149882.354,1872308.474,41.80552325,-87.72581893,57,ARCHER HEIGHTS,14,8,"(41.80552325, -87.72581893)"
610019,Joshua D Kershaw Elementary School,ES,6450 S Lowe Ave ,(773) 535-3050,94.8,8.2,NULL,NULL,NULL,262,NULL,1.50E+14,1173111.97,1861899.898,41.77647883,-87.64092929,68,ENGLEWOOD,20,7,"(41.77647883, -87.64092929)"
610395,Pershing West Middle School,MS,3200 S Calumet Ave ,(773) 534-9240,96.2,3.7,NULL,NULL,NULL,269,NULL,1.50E+14,1179082.41,1883818.012,41.83649005,-87.61837372,35,DOUGLAS,2,2,"(41.83649005, -87.61837372)"
609744,Northside Learning Center High School,HS,3730 W Bryn Mawr Ave ,(773) 534-5180,89.8,5.3,66.7,0,NULL,298,NULL,1.50E+14,1150357.037,1936987.496,41.98299994,-87.72238881,13,NORTH PARK,39,17,"(41.98299994, -87.72238881)"
610268,Arthur R Ashe Elementary School,ES,8505 S Ingleside Ave ,(773) 535-3550,87.9,41.6,NULL,NULL,NULL,459,NULL,1.50E+14,1184078.661,1848752.991,41.74015307,-87.60113659,44,CHATHAM,8,6,"(41.74015307, -87.60113659)"
609939,Frank L Gillespie Elementary School,ES,9301 S State St ,(773) 535-5065,91.9,2.1,NULL,NULL,NULL,609,NULL,1.50E+14,1177970.337,1843287.805,41.72529635,-87.62368165,49,ROSELAND,6,6,"(41.72529635, -87.62368165)"
609932,Jesse Owens Elementary Community Academy,ES,12450 S State St ,(773) 535-5661,91.3,4.9,NULL,NULL,NULL,340,NULL,1.50E+14,1178488.214,1822184.059,41.66737294,-87.62242272,53,WEST PULLMAN,9,5,"(41.66737294, -87.62242272)"
610203,Enrico Tonti Elementary School,ES,5815 S Homan Ave ,(773) 535-9280,95.8,2.1,NULL,NULL,NULL,1021,NULL,1.50E+14,1154749.55,1865777.301,41.78750499,-87.70814201,63,GAGE PARK,14,8,"(41.78750499, -87.70814201)"
609951,Ariel Elementary Community Academy,ES,1119 E 46th St ,(773) 535-1996,95.5,5.4,NULL,NULL,NULL,550,NULL,1.50E+14,1184576.517,1874697.119,41.81133445,-87.5985003,39,KENWOOD,4,2,"(41.81133445, -87.5985003)"
610175,Beulah Shoesmith Elementary School,ES,1330 E 50th St ,(773) 535-1764,94.7,0.3,NULL,NULL,NULL,325,NULL,1.50E+14,1185846.553,1872152.239,41.80432122,-87.59392226,39,KENWOOD,4,2,"(41.80432122, -87.59392226)"
609810,Norman A Bridge Elementary School,ES,3800 N New England Ave ,(773) 534-3718,95.6,6.6,NULL,NULL,NULL,1004,NULL,1.50E+14,1129684.056,1924513.932,41.94915063,-87.79870722,17,DUNNING,38,16,"(41.94915063, -87.79870722)"
610048,George Manierre Elementary School,ES,1420 N Hudson Ave ,(773) 534-8456,91,44,NULL,NULL,NULL,396,NULL,1.50E+14,1173014.972,1909920.568,41.90825367,-87.63986347,8,NEAR NORTH SIDE,27,18,"(41.90825367, -87.63986347)"
610293,Genevieve Melody Elementary School,ES,412 S Keeler Ave ,(773) 534-6850,92.1,26,NULL,NULL,NULL,315,NULL,1.50E+14,1148424.226,1897525.231,41.87474954,-87.73051772,26,WEST GARFIELD PARK,24,11,"(41.87474954, -87.73051772)"
610131,Ambrose Plamondon Elementary School,ES,2642 W 15th Pl ,(773) 534-1789,96.9,0.6,NULL,NULL,NULL,171,NULL,1.50E+14,1158816.302,1892329.996,41.86028668,-87.69250468,29,NORTH LAWNDALE,28,10,"(41.86028668, -87.69250468)"
610059,Oscar F Mayer Elementary School,ES,2250 N Clifton Ave ,(773) 534-5535,95,11.4,NULL,NULL,NULL,605,NULL,1.50E+14,1168219.452,1915320.55,41.92317657,-87.65732331,7,LINCOLN PARK,32,18,"(41.92317657, -87.65732331)"
609959,John Charles Haines Elementary School,ES,247 W 23rd Pl ,(773) 534-9200,98.4,0.3,NULL,NULL,NULL,664,NULL,1.50E+14,1174842.529,1888681.328,41.84993116,-87.63378596,34,ARMOUR SQUARE,25,9,"(41.84993116, -87.63378596)"
610240,Matthew A Henson Elementary School,ES,1326 S Avers Ave ,(773) 534-1804,90.9,13.2,NULL,NULL,NULL,271,NULL,1.50E+14,1150885.71,1893465.136,41.86356038,-87.72158636,29,NORTH LAWNDALE,24,10,"(41.86356038, -87.72158636)"
609977,Woodlawn Community Elementary School,ES,6657 S Kimbark Ave ,(773) 535-0801,93.9,12.4,NULL,NULL,NULL,238,NULL,1.50E+14,1185825.188,1860883.579,41.77339962,-87.59435584,42,WOODLAWN,5,3,"(41.77339962, -87.59435584)"
610313,Jose De Diego Elementary Community Academy,ES,1313 N Claremont Ave ,(773) 534-4451,95,29,NULL,NULL,NULL,869,NULL,1.50E+14,1160540.669,1908752.314,41.90531549,-87.68572005,24,WEST TOWN,1,14,"(41.90531549, -87.68572005)"
610124,Harold Washington Elementary School,ES,9130 S University Ave ,(773) 535-6225,96.1,3.1,NULL,NULL,NULL,549,NULL,1.50E+14,1185436.746,1844530.731,41.72853492,-87.59629327,47,BURNSIDE,8,4,"(41.72853492, -87.59629327)"
610033,LaSalle Elementary Language Academy,ES,1734 N Orleans St ,(773) 534-8470,96.8,7,NULL,NULL,NULL,576,NULL,1.50E+14,1173614.17,1911976.635,41.9138823,-87.63760107,7,LINCOLN PARK,43,18,"(41.9138823, -87.63760107)"
609859,DeWitt Clinton Elementary School,ES,6110 N Fairfield Ave ,(773) 534-2025,95.3,14.8,NULL,NULL,NULL,1139,NULL,1.50E+14,1156854.125,1940520.212,41.99256421,-87.69839748,2,WEST RIDGE,50,24,"(41.99256421, -87.69839748)"
610256,Jackie Robinson Elementary School,ES,4225 S Lake Park Ave ,(773) 535-1777,90.5,47.9,NULL,NULL,NULL,140,NULL,1.50E+14,1184412.88,1876890.974,41.81735839,-87.59903174,36,OAKLAND,4,2,"(41.81735839, -87.59903174)"
609912,James B Farnsworth Elementary School,ES,5414 N Linder Ave ,(773) 534-3535,94.2,1.7,NULL,NULL,NULL,574,NULL,1.50E+14,1138478.05,1935743.025,41.9798092,-87.76610809,11,JEFFERSON PARK,45,16,"(41.9798092, -87.76610809)"
610513,Air Force Academy High School,HS,3630 S Wells St ,(773) 535-1590,93.3,15.6,NULL,NULL,NULL,302,91.8,1.50E+14,1175177.622,1880745.126,41.82814609,-87.63279369,34,ARMOUR SQUARE,11,9,"(41.82814609, -87.63279369)"
610111,John Palmer Elementary School,ES,5051 N Kenneth Ave ,(773) 534-3704,96.3,12.8,NULL,NULL,NULL,919,NULL,1.50E+14,1145817.577,1933407.476,41.97326374,-87.73917547,14,ALBANY PARK,39,17,"(41.97326374, -87.73917547)"
609909,Edward Everett Elementary School,ES,3419 S Bell Ave ,(773) 535-4550,95.3,2.4,NULL,NULL,NULL,321,NULL,1.50E+14,1161955.375,1881878.553,41.83154196,-87.68127322,59,MCKINLEY PARK,11,9,"(41.83154196, -87.68127322)"
610195,Elizabeth H Sutherland Elementary School,ES,10015 S Leavitt St ,(773) 535-2580,95.6,6.8,NULL,NULL,NULL,762,NULL,1.50E+14,1163512.956,1838118.891,41.71142687,-87.67678398,72,BEVERLY,19,22,"(41.71142687, -87.67678398)"
609774,Louisa May Alcott Elementary School,ES,2625 N Orchard St ,(773) 534-5460,96.6,3.7,NULL,NULL,NULL,481,NULL,1.50E+14,1171189.134,1917774.756,41.92984626,-87.64633949,7,LINCOLN PARK,43,19,"(41.92984626, -87.64633949)"
610295,Thomas J Higgins Elementary Community Academy,ES,11710 S Morgan St ,(773) 535-5625,95.2,0.5,NULL,NULL,NULL,369,NULL,1.50E+14,1171725.333,1827097.573,41.68100687,-87.64702985,53,WEST PULLMAN,34,5,"(41.68100687, -87.64702985)"
610089,John B Murphy Elementary School,ES,3539 W Grace St ,(773) 534-5223,95.6,1.9,NULL,NULL,NULL,638,NULL,1.50E+14,1151954.94,1924991.364,41.95005034,-87.71682949,16,IRVING PARK,35,17,"(41.95005034, -87.71682949)"
610502,Marine Military Math and Science Academy ,HS,145 S Campbell Ave ,(773) 534-7818,91.3,4.5,37.7,NULL,NULL,366,86.3,1.50E+14,1159815.389,1899102.492,41.87885054,-87.68865058,28,NEAR WEST SIDE,2,11,"(41.87885054, -87.68865058)"
610194,Charles Sumner  Math & Science Community Acad Elementary School,ES,4320 W 5th Ave ,(773) 534-6730,93.9,12.3,NULL,NULL,NULL,430,NULL,1.50E+14,1147607.2,1896098.17,41.87084922,-87.73355414,26,WEST GARFIELD PARK,24,11,"(41.87084922, -87.73355414)"
610219,George Washington Elementary School,ES,3611 E 114th St ,(773) 535-5010,95.5,5.6,NULL,NULL,NULL,813,NULL,1.50E+14,1202028.594,1829944.81,41.68810403,-87.53600985,52,EAST SIDE,10,4,"(41.68810403, -87.53600985)"
610090,Phillip Murray Elementary Language Academy,ES,5335 S Kenwood Ave ,(773) 535-0585,95.6,3.5,NULL,NULL,NULL,533,NULL,1.50E+14,1186033.436,1870041.58,41.79852501,-87.59330352,41,HYDE PARK,4,2,"(41.79852501, -87.59330352)"
610155,Sauganash Elementary School,ES,6040 N Kilpatrick Ave ,(773) 534-3470,96.3,1.5,NULL,NULL,NULL,549,NULL,1.50E+14,1143919.392,1939921.031,41.99117332,-87.74599137,12,FOREST GLEN,39,17,"(41.99117332, -87.74599137)"
610323,New Millennium High School of Health at Bowen,HS,2710 E 89th St ,(773) 535-7650,75.6,61.8,16.7,67.2,52.4,701,62.1,1.50E+14,1195939.937,1846527.528,41.73376107,-87.55775263,46,SOUTH CHICAGO,7,4,"(41.73376107, -87.55775263)"
610230,Wildwood Elementary School,ES,6950 N Hiawatha Ave ,(773) 534-1188,96.2,1,NULL,NULL,NULL,414,NULL,1.50E+14,1135078.471,1945800.949,42.00747007,-87.77837089,12,FOREST GLEN,41,16,"(42.00747007, -87.77837089)"
609781,Crispus Attucks Elementary School,ES,5055 S State St ,(773) 535-1270,95.2,12.5,NULL,NULL,NULL,274,NULL,1.50E+14,1177176.077,1871285.644,41.80214349,-87.6257474,38,GRAND BOULEVARD,3,2,"(41.80214349, -87.6257474)"
609964,John H Hamline Elementary School,ES,4747 S Bishop St ,(773) 535-4565,94.4,7.5,NULL,NULL,NULL,679,NULL,1.50E+14,1167511.897,1873073.883,41.80726347,-87.66113856,61,NEW CITY,20,9,"(41.80726347, -87.66113856)"
610300,Oliver S Westcott Elementary School,ES,409 W 80th St ,(773) 535-3090,92.6,31.5,NULL,NULL,NULL,413,NULL,1.50E+14,1174868.475,1851842.144,41.74884018,-87.63478949,44,CHATHAM,21,6,"(41.74884018, -87.63478949)"
609876,Nathan S Davis Elementary School,ES,3014 W 39th Pl ,(773) 535-4540,95.1,2.4,NULL,NULL,NULL,1032,NULL,1.50E+14,1156815.412,1878318.629,41.8218786,-87.70022859,58,BRIGHTON PARK,14,9,"(41.8218786, -87.70022859)"
609733,Roger C Sullivan High School,HS,6631 N Bosworth Ave ,(773) 534-2000,81.6,14.7,14.8,39.3,52.1,826,68.6,1.50E+14,1164774.883,1944269.292,42.00268694,-87.66915533,1,ROGERS PARK,40,24,"(42.00268694, -87.66915533)"
609907,Leif Ericson Elementary Scholastic Academy,ES,3600 W 5th Ave ,(773) 534-6660,94.7,20.8,NULL,NULL,NULL,518,NULL,1.50E+14,1152417.444,1897922.54,41.87576191,-87.71584573,27,EAST GARFIELD PARK,28,11,"(41.87576191, -87.71584573)"
610003,Paul Cuffe Math-Science Technology Academy Elementary School,ES,8324 S Racine Ave ,(773) 535-8250,93.6,46.9,NULL,NULL,NULL,512,NULL,1.50E+14,1169734.759,1849470.5,41.74244489,-87.65366994,71,AUBURN GRESHAM,21,6,"(41.74244489, -87.65366994)"
610100,West Park Elementary Academy,ES,1425 N Tripp Ave ,(773) 534-4940,93.7,16.3,NULL,NULL,NULL,686,NULL,1.50E+14,1147827.76,1909240.952,41.90691024,-87.73240646,23,HUMBOLDT PARK,37,25,"(41.90691024, -87.73240646)"
609956,Robert L Grimes Elementary School,ES,5450 W 64th Pl ,(773) 535-2364,95.2,5,NULL,NULL,NULL,486,NULL,1.50E+14,1140971.91,1861303.67,41.77549238,-87.75876919,64,CLEARING,13,8,"(41.77549238, -87.75876919)"
610315,Edward White Elementary Career Academy,ES,1136 W 122nd St ,(773) 535-5672,93.8,31,NULL,NULL,NULL,138,NULL,1.50E+14,1170787.9,1823930.602,41.67233661,-87.65055321,53,WEST PULLMAN,34,5,"(41.67233661, -87.65055321)"
610265,Benjamin Banneker Elementary School,ES,6656 S Normal Blvd ,(773) 535-3020,91.3,26.9,NULL,NULL,NULL,302,NULL,1.50E+14,1174114.357,1860550.724,41.77275433,-87.63729464,68,ENGLEWOOD,6,7,"(41.77275433, -87.63729464)"
610028,Alfred David Kohn Elementary School,ES,10414 S State St ,(773) 535-5489,90.1,31.2,NULL,NULL,NULL,428,NULL,1.50E+14,1178053.498,1835837.822,41.70485072,-87.62360199,49,ROSELAND,34,5,"(41.70485072, -87.62360199)"
610067,Francis M McKay Elementary School,ES,6901 S Fairfield Ave ,(773) 535-9340,93.5,9.1,NULL,NULL,NULL,891,NULL,1.50E+14,1159272.821,1858741.621,41.76810662,-87.69174944,66,CHICAGO LAWN,18,8,"(41.76810662, -87.69174944)"
609920,Gerald Delgado Kanoon Elementary Magnet School,ES,2233 S Kedzie Ave ,(773) 534-1736,95.9,3.3,NULL,NULL,NULL,713,NULL,1.50E+14,1155417.273,1888838.931,41.85077575,-87.70507547,30,SOUTH LAWNDALE,24,10,"(41.85077575, -87.70507547)"
609879,Charles Gates Dawes Elementary School,ES,3810 W 81st Pl ,(773) 535-2350,95.7,35.6,NULL,NULL,NULL,1032,NULL,1.50E+14,1152339.16,1850308.795,41.74510467,-87.71738613,70,ASHBURN,18,8,"(41.74510467, -87.71738613)"
610238,Carrie Jacobs Bond Elementary School,ES,7050 S May St ,(773) 535-3480,91.7,18.8,NULL,NULL,NULL,343,NULL,1.50E+14,1169836.444,1857831.503,41.76538639,-87.65305514,68,ENGLEWOOD,17,7,"(41.76538639, -87.65305514)"
610010,Friedrich Ludwig Jahn Elementary School,ES,3149 N Wolcott Ave ,(773) 534-5500,94.7,19.9,NULL,NULL,NULL,495,NULL,1.50E+14,1163153.671,1921136.53,41.93924404,-87.67577282,5,NORTH CENTER,32,19,"(41.93924404, -87.67577282)"
609718,John F Kennedy High School,HS,6325 W 56th St ,(773) 535-2325,83,22,24.4,53.3,52.9,1589,59.7,1.50E+14,1135044.301,1866707.447,41.79042796,-87.78037224,56,GARFIELD RIDGE,23,8,"(41.79042796, -87.78037224)"
610138,Pulaski International Academy Elmentary School,ES,2230 W McLean Ave ,(773) 534-4391,96.1,1.7,NULL,NULL,NULL,864,NULL,1.50E+14,1161026.753,1913565.719,41.91851374,-87.68380061,22,LOGAN SQUARE,32,14,"(41.91851374, -87.68380061)"
609794,Thomas A Edison Regional Gifted Center Elementary School,ES,4929 N Sawyer Ave ,(773) 534-0540,96.6,1.9,NULL,NULL,NULL,269,NULL,1.50E+14,1153858.196,1932691.891,41.9711433,-87.70962725,14,ALBANY PARK,39,17,"(41.9711433, -87.70962725)"
610046,Mary Lyon Elementary School,ES,2941 N McVicker Ave ,(773) 534-3120,95.9,3.7,NULL,NULL,NULL,1423,NULL,1.50E+14,1135587.211,1919095.574,41.93417898,-87.77713699,19,BELMONT CRAGIN,29,25,"(41.93417898, -87.77713699)"
610347,Claremont Academy Elementary School,ES,2300 W 64th St ,(773) 535-8110,92.5,64.2,NULL,NULL,NULL,531,NULL,1.50E+14,1162155.645,1862200.052,41.77753754,-87.68108634,66,CHICAGO LAWN,15,8,"(41.77753754, -87.68108634)"
610533,Dr Jorge Prieto Math and Science,ES,2231 N Central Ave ,(773) 534-0210,94.7,7,NULL,NULL,NULL,1001,NULL,1.50E+14,1138718.257,1914429.033,41.92131717,-87.7657438,19,BELMONT CRAGIN,37,25,"(41.92131717, -87.7657438)"
610213,James Wadsworth Elementary School,ES,6420 S University Ave ,(773) 535-0730,92.2,8,NULL,NULL,NULL,277,NULL,1.50E+14,1184773.873,1862597.144,41.77812652,-87.59815597,42,WOODLAWN,20,3,"(41.77812652, -87.59815597)"
610058,Horatio May Elementary Community Academy,ES,512 S Lavergne Ave ,(773) 534-6140,91.9,40,NULL,NULL,NULL,458,NULL,1.50E+14,1143308.514,1897064.832,41.87358321,-87.74931216,25,AUSTIN,29,15,"(41.87358321, -87.74931216)"
609716,Kelvyn Park High School,HS,4343 W Wrightwood Ave ,(773) 534-4200,74.4,12.9,16.7,54.1,35,1252,56.9,1.50E+14,1146795.845,1916879.493,41.92789092,-87.73600171,20,HERMOSA,31,25,"(41.92789092, -87.73600171)"
610183,Spencer Technology Academy,ES,214 N Lavergne Ave ,(773) 534-6150,92.5,24.1,NULL,NULL,NULL,811,NULL,1.50E+14,1142962.029,1901180.137,41.88488257,-87.75048169,25,AUSTIN,28,15,"(41.88488257, -87.75048169)"
609834,Little Village Elementary School,ES,2620 S Lawndale Ave ,(773) 534-1880,96.7,3.2,NULL,NULL,NULL,842,NULL,1.50E+14,1152090.217,1886231.173,41.84368588,-87.71735516,30,SOUTH LAWNDALE,22,10,"(41.84368588, -87.71735516)"
609815,Edward A Bouchet Math & Science Academy Elementary School,ES,7355 S Jeffery Blvd ,(773) 535-0501,92.9,28,NULL,NULL,NULL,783,NULL,1.50E+14,1190861.978,1856358.038,41.76086093,-87.57603849,43,SOUTH SHORE,5,3,"(41.76086093, -87.57603849)"
610027,Rudyard Kipling Elementary School,ES,9351 S Lowe Ave ,(773) 535-3151,94.7,23.4,NULL,NULL,NULL,445,NULL,1.50E+14,1173661.215,1842654.148,41.72365391,-87.63948475,73,WASHINGTON HEIGHTS,21,22,"(41.72365391, -87.63948475)"
610128,Marcus Moziah Garvey Elementary School,ES,10309 S Morgan St ,(773) 535-2763,94,20.5,NULL,NULL,NULL,356,NULL,1.50E+14,1171511.646,1836420.671,41.7065956,-87.64754034,73,WASHINGTON HEIGHTS,34,22,"(41.7065956, -87.64754034)"
609753,Chicago High School for Agricultural Sciences,HS,3857 W 111th St ,(773) 535-2500,92.8,5.2,30.7,70.7,79.6,579,88.1,1.50E+14,1152383.425,1830663.647,41.69119388,-87.71773863,74,MOUNT GREENWOOD,19,22,"(41.69119388, -87.71773863)"
610041,Josephine C Locke Elementary School,ES,2828 N Oak Park Ave ,(773) 534-3300,95.5,2.2,NULL,NULL,NULL,1317,NULL,1.50E+14,1130557.942,1918183.07,41.93176301,-87.79564085,18,MONTCLARE,36,25,"(41.93176301, -87.79564085)"
609812,William H Brown Elementary School,ES,54 N Hermitage Ave ,(773) 534-7250,92.8,59,NULL,NULL,NULL,217,NULL,1.50E+14,1164687.109,1900646.996,41.88298698,-87.67071879,28,NEAR WEST SIDE,27,13,"(41.88298698, -87.67071879)"
610122,Helen Peirce International Studies Elementary School,ES,1423 W Bryn Mawr Ave ,(773) 534-2440,96.7,5.8,NULL,NULL,NULL,977,NULL,1.50E+14,1165723.804,1937258.243,41.98342819,-87.66586537,77,EDGEWATER,48,20,"(41.98342819, -87.66586537)"
610336,Williams Preparatory Academy Middle School,MS,2710 S Dearborn St ,(773) 534-9235,93.3,14.8,NULL,NULL,NULL,125,NULL,1.50E+14,1176275.784,1886545.486,41.84403809,-87.62859008,35,DOUGLAS,3,1,"(41.84403809, -87.62859008)"
609724,Stephen T Mather High School,HS,5835 N Lincoln Ave ,(773) 534-2350,87.6,7.6,24.6,56.2,57.4,1657,59,1.50E+14,1155766.152,1938701.409,41.9875954,-87.70244871,2,WEST RIDGE,40,20,"(41.9875954, -87.70244871)"
610297,High School of Leadership at South Shore,HS,7627 S Constance Ave ,(773) 535-6190,72,43.4,12.2,36.6,68.8,731,48.8,1.50E+14,1189903.206,1854648.757,41.75619362,-87.57960727,43,SOUTH SHORE,8,4,"(41.75619362, -87.57960727)"
610506,TEAM Englewood Community Academy High School,HS,6201 S Stewart Ave ,(773) 535-3530,87.3,8.2,7.9,NULL,NULL,440,77.4,1.50E+14,1174730.35,1863740.125,41.7814927,-87.63494163,68,ENGLEWOOD,20,7,"(41.7814927, -87.63494163)"
610350,Robert A Black Magnet Elementary School,ES,9101 S Euclid Ave ,(773) 535-6390,96,0.4,NULL,NULL,NULL,474,NULL,1.50E+14,1190807.321,1844986.038,41.72965645,-87.57660534,48,CALUMET HEIGHTS,8,4,"(41.72965645, -87.57660534)"
610154,Martin A Ryerson Elementary School,ES,646 N Lawndale Ave ,(773) 534-6700,95.5,95.1,NULL,NULL,NULL,445,NULL,1.50E+14,1151558.259,1904275.283,41.89321142,-87.71883334,23,HUMBOLDT PARK,27,11,"(41.89321142, -87.71883334)"
610384,Infinity Math Science and Technology High School,HS,3120 S Kostner Ave ,(773) 535-4225,92.2,7.5,29,84.4,55.7,388,98.1,1.50E+14,1147521.302,1883405.128,41.83601953,-87.73419465,30,SOUTH LAWNDALE,22,10,"(41.83601953, -87.73419465)"
609870,Daniel J Corkery Elementary School,ES,2510 S Kildare Ave ,(773) 534-1650,94.7,18.1,NULL,NULL,NULL,631,NULL,1.50E+14,1148304.879,1886901.414,41.84559878,-87.73122946,30,SOUTH LAWNDALE,22,10,"(41.84559878, -87.73122946)"
